Company Name,Address,Lat,Long,Logo_URL
Apple Inc.,"1 Apple Park Way, Cupertino, CA 95014",37.334722,-122.009056,https://img.logo.dev/apple.com?token=YOUR-LOGODEV-TOKEN
Google (Alphabet Inc.),"1600 Amphitheatre Parkway, Mountain View, CA 94043",37.422,-122.084,https://img.logo.dev/google.com?token=YOUR-LOGODEV-TOKEN
Meta Platforms Inc.,"1 Hacker Way, Menlo Park, CA 94025",37.485,-122.148,https://img.logo.dev/meta.com?token=YOUR-LOGODEV-TOKEN
Tesla Inc.,"3500 Deer Creek Rd, Palo Alto, CA 94304",37.394,-122.15,https://img.logo.dev/tesla.com?token=YOUR-LOGODEV-TOKEN
Netflix Inc.,"100 Winchester Circle, Los Gatos, CA 95032",37.252,-121.962,https://img.logo.dev/netflix.com?token=YOUR-LOGODEV-TOKEN
NVIDIA Corporation,"2788 San Tomas Expressway, Santa Clara, CA 95051",37.37,-121.964,https://img.logo.dev/nvidia.com?token=YOUR-LOGODEV-TOKEN
Intel Corporation,"2200 Mission College Blvd, Santa Clara, CA 95054",37.387,-121.963,https://img.logo.dev/intel.com?token=YOUR-LOGODEV-TOKEN
Salesforce Inc.,"50 Fremont St, San Francisco, CA 94105",37.791,-122.397,https://img.logo.dev/salesforce.com?token=YOUR-LOGODEV-TOKEN
Oracle Corporation,"2300 Oracle Way, Austin, TX 78741",37.532,-122.262,https://img.logo.dev/oracle.com?token=YOUR-LOGODEV-TOKEN
Cisco Systems Inc.,"170 West Tasman Dr, San Jose, CA 95134",37.408,-121.938,https://img.logo.dev/cisco.com?token=YOUR-LOGODEV-TOKEN
Uber Technologies Inc.,"1725 3rd St, San Francisco, CA 94158",37.768,-122.389,https://img.logo.dev/uber.com?token=YOUR-LOGODEV-TOKEN
Airbnb Inc.,"888 Brannan St, San Francisco, CA 94103",37.77,-122.405,https://img.logo.dev/airbnb.com?token=YOUR-LOGODEV-TOKEN
Twitter Inc. (X Corp),"1355 Market St, San Francisco, CA 94103",37.777,-122.417,https://img.logo.dev/x.com?token=YOUR-LOGODEV-TOKEN
Square Inc. (Block Inc.),"1455 Market St, San Francisco, CA 94103",37.775,-122.418,https://img.logo.dev/squareup.com?token=YOUR-LOGODEV-TOKEN
Zoom Video Communications,"55 Almaden Blvd, San Jose, CA 95113",37.337,-121.89,https://img.logo.dev/zoom.us?token=YOUR-LOGODEV-TOKEN
Adobe Inc.,"345 Park Ave, San Jose, CA 95110",37.331,-121.893,https://img.logo.dev/adobe.com?token=YOUR-LOGODEV-TOKEN
PayPal Holdings Inc.,"2211 North 1st St, San Jose, CA 95131",37.39,-121.918,https://img.logo.dev/paypal.com?token=YOUR-LOGODEV-TOKEN
eBay Inc.,"2025 Hamilton Ave, San Jose, CA 95125",37.302,-121.936,https://img.logo.dev/ebay.com?token=YOUR-LOGODEV-TOKEN
LinkedIn Corporation,"1000 W Maude Ave, Sunnyvale, CA 94085",37.373,-122.037,https://img.logo.dev/linkedin.com?token=YOUR-LOGODEV-TOKEN
Workday Inc.,"6110 Stoneridge Mall Rd, Pleasanton, CA 94588",37.695,-121.924,https://img.logo.dev/workday.com?token=YOUR-LOGODEV-TOKEN
Deel,"425 1st St, San Francisco, CA 94105",37.789,-122.397,https://img.logo.dev/deel.com?token=YOUR-LOGODEV-TOKEN
Cowbell,"101 California St, San Francisco, CA 94111",37.793,-122.398,https://img.logo.dev/cowbell.insure?token=YOUR-LOGODEV-TOKEN
Observe,"548 Market St, San Francisco, CA 94104",37.79,-122.399,https://img.logo.dev/observeinc.com?token=YOUR-LOGODEV-TOKEN
Wisetack,"140 2nd St, San Francisco, CA 94105",37.787,-122.398,https://img.logo.dev/wisetack.com?token=YOUR-LOGODEV-TOKEN
Rad AI,"870 Market St, San Francisco, CA 94102",37.784,-122.408,https://img.logo.dev/radai.com?token=YOUR-LOGODEV-TOKEN
Benchling,"430 E 29th St, New York, NY 10016",37.781,-122.406,https://img.logo.dev/benchling.com?token=YOUR-LOGODEV-TOKEN
Sensor Tower,"1 Russ St, San Francisco, CA 94103",37.78,-122.405,https://img.logo.dev/sensortower.com?token=YOUR-LOGODEV-TOKEN
Brex,"425 1st St, San Francisco, CA 94105",37.789,-122.397,https://img.logo.dev/brex.com?token=YOUR-LOGODEV-TOKEN
Front,"760 Market St, San Francisco, CA 94102",37.785,-122.405,https://img.logo.dev/frontapp.com?token=YOUR-LOGODEV-TOKEN
Plaid,"444 De Haro St, San Francisco, CA 94107",37.765,-122.402,https://img.logo.dev/plaid.com?token=YOUR-LOGODEV-TOKEN
Lattice,"500 3rd St, San Francisco, CA 94107",37.781,-122.396,https://img.logo.dev/lattice.com?token=YOUR-LOGODEV-TOKEN
Nuna,"34 Stillman St, San Francisco, CA 94107",37.783,-122.395,https://img.logo.dev/nuna.com?token=YOUR-LOGODEV-TOKEN
Aurora Solar,"44 Montgomery St, San Francisco, CA 94104",37.792,-122.402,https://img.logo.dev/aurorasolar.com?token=YOUR-LOGODEV-TOKEN
Gusto,"525 20th St, San Francisco, CA 94107",37.757,-122.388,https://img.logo.dev/gusto.com?token=YOUR-LOGODEV-TOKEN
Upgrade,"620 Folsom St, San Francisco, CA 94107",37.786,-122.398,https://img.logo.dev/upgrade.com?token=YOUR-LOGODEV-TOKEN
Deputy,"535 Mission St, San Francisco, CA 94105",37.789,-122.398,https://img.logo.dev/deputy.com?token=YOUR-LOGODEV-TOKEN
Dropbox,"333 Brannan St, San Francisco, CA 94107",37.782,-122.392,https://img.logo.dev/dropbox.com?token=YOUR-LOGODEV-TOKEN
Box,"900 Jefferson Ave, Redwood City, CA 94063",37.485,-122.201,https://img.logo.dev/box.com?token=YOUR-LOGODEV-TOKEN
Zendesk,"989 Market St, San Francisco, CA 94103",37.78,-122.41,https://img.logo.dev/zendesk.com?token=YOUR-LOGODEV-TOKEN
Yelp,"350 Mission St, San Francisco, CA 94105",37.79,-122.396,https://img.logo.dev/yelp.com?token=YOUR-LOGODEV-TOKEN
Pinterest,"651 Brannan St, San Francisco, CA 94107",37.771,-122.403,https://img.logo.dev/pinterest.com?token=YOUR-LOGODEV-TOKEN
DoorDash,"303 2nd St, San Francisco, CA 94107",37.786,-122.396,https://img.logo.dev/doordash.com?token=YOUR-LOGODEV-TOKEN
Instacart,"50 Beale St, San Francisco, CA 94105",37.791,-122.397,https://img.logo.dev/instacart.com?token=YOUR-LOGODEV-TOKEN
Lyft,"185 Berry St, San Francisco, CA 94107",37.777,-122.392,https://img.logo.dev/lyft.com?token=YOUR-LOGODEV-TOKEN
Twitch,"350 Bush St, San Francisco, DCA 94104",37.791,-122.403,https://img.logo.dev/twitch.tv?token=YOUR-LOGODEV-TOKEN
Slack,"500 Howard St, San Francisco, CA 94105",37.788,-122.396,https://img.logo.dev/slack.com?token=YOUR-LOGODEV-TOKEN
Twilio,"375 Beale St, San Francisco, CA 94105",37.788,-122.392,https://img.logo.dev/twilio.com?token=YOUR-LOGODEV-TOKEN
Stripe,"185 Berry St, San Francisco, CA 94107",37.777,-122.392,https://img.logo.dev/stripe.com?token=YOUR-LOGODEV-TOKEN
MongoDB,"1633 Broadway, New York, NY 10019",37.79,-122.4,https://img.logo.dev/mongodb.com?token=YOUR-LOGODEV-TOKEN
Okta,"100 1st St, San Francisco, CA 94105",37.789,-122.398,https://img.logo.dev/okta.com?token=YOUR-LOGODEV-TOKEN
DocuSign,"221 Main St, San Francisco, CA 94105",37.79,-122.392,https://img.logo.dev/docusign.com?token=YOUR-LOGODEV-TOKEN
Broadcom Inc.,"1320 Ridder Park Dr, San Jose, CA 95131",37.404,-121.928,https://img.logo.dev/broadcom.com?token=YOUR-LOGODEV-TOKEN
Applied Materials,"3050 Bowers Ave, Santa Clara, CA 95054",37.368,-121.977,https://img.logo.dev/appliedmaterials.com?token=YOUR-LOGODEV-TOKEN
Advanced Micro Devices (AMD),"2485 Augustine Dr, Santa Clara, CA 95054",37.373,-121.963,https://img.logo.dev/amd.com?token=YOUR-LOGODEV-TOKEN
Juniper Networks,"1133 Innovation Way, Sunnyvale, CA 94089",37.389,-122.016,https://img.logo.dev/juniper.net?token=YOUR-LOGODEV-TOKEN
NetApp,"1395 Crossman Ave, Sunnyvale, CA 94089",37.377,-122.017,https://img.logo.dev/netapp.com?token=YOUR-LOGODEV-TOKEN
Hewlett Packard Enterprise,"6280 America Center Dr, San Jose, CA 95002",37.366,-121.918,https://img.logo.dev/hpe.com?token=YOUR-LOGODEV-TOKEN
Seagate Technology,"47488 Kato Rd, Fremont, CA 94538",37.493,-121.941,https://img.logo.dev/seagate.com?token=YOUR-LOGODEV-TOKEN
Western Digital,"951 SanDisk Dr, Milpitas, CA 95035",37.432,-121.918,https://img.logo.dev/westerndigital.com?token=YOUR-LOGODEV-TOKEN
Marvell Technology,"5488 Marvell Ln, Santa Clara, CA 95054",37.386,-121.972,https://img.logo.dev/marvell.com?token=YOUR-LOGODEV-TOKEN
Lam Research,"4650 Cushing Pkwy, Fremont, CA 94538",37.485,-121.93,https://img.logo.dev/lamresearch.com?token=YOUR-LOGODEV-TOKEN
KLA Corporation,"1 Technology Dr, Milpitas, CA 95035",37.435,-121.913,https://img.logo.dev/kla.com?token=YOUR-LOGODEV-TOKEN
Figma,"760 Market St, San Francisco, CA 94102",37.785,-122.405,https://img.logo.dev/figma.com?token=YOUR-LOGODEV-TOKEN
Notion,"500 3rd St, San Francisco, CA 94107",37.781,-122.396,https://img.logo.dev/notion.so?token=YOUR-LOGODEV-TOKEN
Canva,"2 Embarcadero Center, San Francisco, CA 94111",37.795,-122.398,https://img.logo.dev/canva.com?token=YOUR-LOGODEV-TOKEN
Robinhood,"85 Willow Rd, Menlo Park, CA 94025",37.462,-122.153,https://img.logo.dev/robinhood.com?token=YOUR-LOGODEV-TOKEN
Coinbase,"100 Pine St, San Francisco, CA 94111",37.792,-122.399,https://img.logo.dev/coinbase.com?token=YOUR-LOGODEV-TOKEN
Palantir,"1555 Blake St, Denver, CO 80202",37.441,-122.143,https://img.logo.dev/palantir.com?token=YOUR-LOGODEV-TOKEN
Snowflake,"106 E 15th St, San Mateo, CA 94402",37.563,-122.325,https://img.logo.dev/snowflake.com?token=YOUR-LOGODEV-TOKEN
ServiceNow,"2225 Lawson Ln, Santa Clara, CA 95054",37.362,-121.953,https://img.logo.dev/servicenow.com?token=YOUR-LOGODEV-TOKEN
Splunk,"270 Brannan St, San Francisco, CA 94107",37.783,-122.392,https://img.logo.dev/splunk.com?token=YOUR-LOGODEV-TOKEN
Databricks,"160 Spear St, San Francisco, CA 94105",37.792,-122.393,https://img.logo.dev/databricks.com?token=YOUR-LOGODEV-TOKEN
GitLab,"268 Bush St, San Francisco, CA 94104",37.79,-122.403,https://img.logo.dev/gitlab.com?token=YOUR-LOGODEV-TOKEN
GitHub,"88 Colin P Kelly Jr St, San Francisco, CA 94107",37.782,-122.392,https://img.logo.dev/github.com?token=YOUR-LOGODEV-TOKEN
Atlassian,"350 Bush St, San Francisco, CA 94104",37.791,-122.403,https://img.logo.dev/atlassian.com?token=YOUR-LOGODEV-TOKEN
Asana,"633 Folsom St, San Francisco, CA 94107",37.785,-122.398,https://img.logo.dev/asana.com?token=YOUR-LOGODEV-TOKEN
Zoom,"55 Almaden Blvd, San Jose, CA 95113",37.337,-121.89,https://img.logo.dev/zoom.us?token=YOUR-LOGODEV-TOKEN
Amplitude,"201 3rd St, San Francisco, CA 94103",37.785,-122.401,https://img.logo.dev/amplitude.com?token=YOUR-LOGODEV-TOKEN
PagerDuty,"600 Townsend St, San Francisco, CA 94103",37.771,-122.403,https://img.logo.dev/pagerduty.com?token=YOUR-LOGODEV-TOKEN
Segment,"100 California St, San Francisco, CA 94111",37.793,-122.398,https://img.logo.dev/segment.com?token=YOUR-LOGODEV-TOKEN
Mixpanel,"405 Howard St, San Francisco, CA 94105",37.788,-122.396,https://img.logo.dev/mixpanel.com?token=YOUR-LOGODEV-TOKEN
LaunchDarkly,"405 Howard St, San Francisco, CA 94105",37.788,-122.396,https://img.logo.dev/launchdarkly.com?token=YOUR-LOGODEV-TOKEN
HashiCorp,"101 2nd St, San Francisco, CA 94105",37.788,-122.399,https://img.logo.dev/hashicorp.com?token=YOUR-LOGODEV-TOKEN
New Relic,"188 Spear St, San Francisco, CA 94105",37.792,-122.393,https://img.logo.dev/newrelic.com?token=YOUR-LOGODEV-TOKEN
Datadog,"620 8th Ave, New York, NY 10018",37.785,-122.405,https://img.logo.dev/datadoghq.com?token=YOUR-LOGODEV-TOKEN
Elastic,"800 W El Camino Real, Mountain View, CA 94040",37.386,-122.085,https://img.logo.dev/elastic.co?token=YOUR-LOGODEV-TOKEN
Confluent,"899 W Evelyn Ave, Mountain View, CA 94041",37.389,-122.078,https://img.logo.dev/confluent.io?token=YOUR-LOGODEV-TOKEN
Sumo Logic,"305 Main St, Redwood City, CA 94063",37.493,-122.228,https://img.logo.dev/sumologic.com?token=YOUR-LOGODEV-TOKEN
Bugsnag,"535 Mission St, San Francisco, CA 94105",37.789,-122.398,https://img.logo.dev/bugsnag.com?token=YOUR-LOGODEV-TOKEN
Sentry,"132 Hawthorne St, San Francisco, CA 94107",37.784,-122.397,https://img.logo.dev/sentry.io?token=YOUR-LOGODEV-TOKEN
Rollbar,"51 Federal St, San Francisco, CA 94107",37.784,-122.392,https://img.logo.dev/rollbar.com?token=YOUR-LOGODEV-TOKEN
Honeycomb,"548 Market St, San Francisco, CA 94104",37.79,-122.399,https://img.logo.dev/honeycomb.io?token=YOUR-LOGODEV-TOKEN
Tableau,"1621 N 34th St, Seattle, WA 98103",37.48,-122.226,https://img.logo.dev/tableau.com?token=YOUR-LOGODEV-TOKEN
MuleSoft,"77 Geary St, San Francisco, CA 94108",37.787,-122.404,https://img.logo.dev/mulesoft.com?token=YOUR-LOGODEV-TOKEN
AppDynamics,"303 2nd St, San Francisco, CA 94107",37.786,-122.396,https://img.logo.dev/appdynamics.com?token=YOUR-LOGODEV-TOKEN
JumpCloud,"518 17th St, Oakland, CA 94612",37.805,-122.268,https://img.logo.dev/jumpcloud.com?token=YOUR-LOGODEV-TOKEN
ThousandEyes,"301 Howard St, San Francisco, CA 94105",37.789,-122.394,https://img.logo.dev/thousandeyes.com?token=YOUR-LOGODEV-TOKEN
TripActions,"101 4th St, San Francisco, CA 94103",37.784,-122.404,https://img.logo.dev/tripactions.com?token=YOUR-LOGODEV-TOKEN
Expensify,"401 SW 5th Ave, Portland, OR 97204",37.783,-122.405,https://img.logo.dev/expensify.com?token=YOUR-LOGODEV-TOKEN
Talkdesk,"535 Mission St, San Francisco, CA 94105",37.789,-122.398,https://img.logo.dev/talkdesk.com?token=YOUR-LOGODEV-TOKEN
Dialpad,"508 2nd St, San Francisco, CA 94107",37.782,-122.393,https://img.logo.dev/dialpad.com?token=YOUR-LOGODEV-TOKEN
RingCentral,"20 Davis Dr, Belmont, CA 94002",37.511,-122.307,https://img.logo.dev/ringcentral.com?token=YOUR-LOGODEV-TOKEN
Freshworks,"2950 S Delaware St, San Mateo, CA 94403",37.543,-122.302,https://img.logo.dev/freshworks.com?token=YOUR-LOGODEV-TOKEN
HubSpot,"25 1st St, Cambridge, MA 02141",37.785,-122.4,https://img.logo.dev/hubspot.com?token=YOUR-LOGODEV-TOKEN
Marketo,"901 Mariners Island Blvd, San Mateo, CA 94404",37.558,-122.287,https://img.logo.dev/marketo.com?token=YOUR-LOGODEV-TOKEN
Pardot,"950 E Paces Ferry Rd, Atlanta, GA 30326",37.56,-122.285,https://img.logo.dev/pardot.com?token=YOUR-LOGODEV-TOKEN
Outreach,"333 Elliott Ave W, Seattle, WA 98119",37.782,-122.398,https://img.logo.dev/outreach.io?token=YOUR-LOGODEV-TOKEN
Chime,"101 California St, San Francisco, CA 94111",37.793,-122.398,https://img.logo.dev/chime.com?token=YOUR-LOGODEV-TOKEN
SoFi,"234 1st St, San Francisco, CA 94105",37.789,-122.397,https://img.logo.dev/sofi.com?token=YOUR-LOGODEV-TOKEN
Credit Karma,"1100 O Farrell St, San Francisco, CA 94109",37.785,-122.42,https://img.logo.dev/creditkarma.com?token=YOUR-LOGODEV-TOKEN
Acorns,"5300 California Ave, Irvine, CA 92617",37.782,-122.398,https://img.logo.dev/acorns.com?token=YOUR-LOGODEV-TOKEN
Affirm,"650 California St, San Francisco, CA 94108",37.793,-122.405,https://img.logo.dev/affirm.com?token=YOUR-LOGODEV-TOKEN
Klarna,"629 Folsom St, San Francisco, CA 94107",37.785,-122.398,https://img.logo.dev/klarna.com?token=YOUR-LOGODEV-TOKEN
Afterpay,"650 California St, San Francisco, CA 94108",37.793,-122.405,https://img.logo.dev/afterpay.com?token=YOUR-LOGODEV-TOKEN
Lending Club,"595 Market St, San Francisco, CA 94105",37.79,-122.4,https://img.logo.dev/lendingclub.com?token=YOUR-LOGODEV-TOKEN
Personal Capital,"3 Embarcadero Center, San Francisco, CA 94111",37.795,-122.398,https://img.logo.dev/personalcapital.com?token=YOUR-LOGODEV-TOKEN
Wealthfront,"375 Beale St, San Francisco, CA 94105",37.788,-122.392,https://img.logo.dev/wealthfront.com?token=YOUR-LOGODEV-TOKEN
Betterment,"5 Columbus Cir, New York, NY 10019",37.785,-122.4,https://img.logo.dev/betterment.com?token=YOUR-LOGODEV-TOKEN
Truebill,"548 Market St, San Francisco, CA 94104",37.79,-122.399,https://img.logo.dev/truebill.com?token=YOUR-LOGODEV-TOKEN
Marcus by Goldman Sachs,"200 West St, New York, NY 10282",37.792,-122.395,https://img.logo.dev/marcus.com?token=YOUR-LOGODEV-TOKEN
Prosper,"221 Main St, San Francisco, CA 94105",37.79,-122.392,https://img.logo.dev/prosper.com?token=YOUR-LOGODEV-TOKEN
Funding Circle,"71 Stevenson St, San Francisco, CA 94105",37.787,-122.4,https://img.logo.dev/fundingcircle.com?token=YOUR-LOGODEV-TOKEN
OnDeck,"1400 Broadway, New York, NY 10018",37.788,-122.398,https://img.logo.dev/ondeck.com?token=YOUR-LOGODEV-TOKEN
Kabbage,"2600 Peachtree Rd NW, Atlanta, GA 30305",37.785,-122.405,https://img.logo.dev/kabbage.com?token=YOUR-LOGODEV-TOKEN
LendingTree,"11115 Rushmore Dr, Charlotte, NC 28277",37.79,-122.4,https://img.logo.dev/lendingtree.com?token=YOUR-LOGODEV-TOKEN
Mint,"1265 Battery St, San Francisco, CA 94111",37.802,-122.405,https://img.logo.dev/mint.com?token=YOUR-LOGODEV-TOKEN
YNAB,"1776 S Jackson St, Denver, CO 80210",37.785,-122.398,https://img.logo.dev/youneedabudget.com?token=YOUR-LOGODEV-TOKEN
Shopify,"33 New Montgomery St, San Francisco, CA 94105",37.789,-122.401,https://img.logo.dev/shopify.com?token=YOUR-LOGODEV-TOKEN
Etsy,"117 Adams St, Brooklyn, NY 11201",37.785,-122.405,https://img.logo.dev/etsy.com?token=YOUR-LOGODEV-TOKEN
Wish,"1 Hacker Way, San Francisco, CA 94301",37.767,-122.405,https://img.logo.dev/wish.com?token=YOUR-LOGODEV-TOKEN
Poshmark,"203 Redwood Shores Pkwy, Redwood City, CA 94065",37.54,-122.257,https://img.logo.dev/poshmark.com?token=YOUR-LOGODEV-TOKEN
The RealReal,"55 Francisco St, San Francisco, CA 94133",37.806,-122.405,https://img.logo.dev/therealreal.com?token=YOUR-LOGODEV-TOKEN
Stitch Fix,"1 Montgomery Tower, San Francisco, CA 94104",37.789,-122.403,https://img.logo.dev/stitchfix.com?token=YOUR-LOGODEV-TOKEN
ThredUp,"969 Broadway, Oakland, CA 94607",37.798,-122.271,https://img.logo.dev/thredup.com?token=YOUR-LOGODEV-TOKEN
Bonobos,"25 E 21st St, New York, NY 10010",37.785,-122.4,https://img.logo.dev/bonobos.com?token=YOUR-LOGODEV-TOKEN
Warby Parker,"315 W 39th St, New York, NY 10018",37.788,-122.395,https://img.logo.dev/warbyparker.com?token=YOUR-LOGODEV-TOKEN
Allbirds,"730 Montgomery St, San Francisco, CA 94111",37.796,-122.403,https://img.logo.dev/allbirds.com?token=YOUR-LOGODEV-TOKEN
Everlane,"1255 Howard St, San Francisco, CA 94103",37.774,-122.408,https://img.logo.dev/everlane.com?token=YOUR-LOGODEV-TOKEN
Dollar Shave Club,"3900 W Alameda Ave, Burbank, CA 91505",37.785,-122.398,https://img.logo.dev/dollarshaveclub.com?token=YOUR-LOGODEV-TOKEN
Blue Apron,"40 W 23rd St, New York, NY 10010",37.79,-122.4,https://img.logo.dev/blueapron.com?token=YOUR-LOGODEV-TOKEN
HelloFresh,"145 Avenue of the Americas, New York, NY 10013",37.792,-122.395,https://img.logo.dev/hellofresh.com?token=YOUR-LOGODEV-TOKEN
Purple,"123 E 5600 S, Murray, UT 84107",37.785,-122.405,https://img.logo.dev/purple.com?token=YOUR-LOGODEV-TOKEN
Casper,"230 Park Ave S, New York, NY 10003",37.788,-122.398,https://img.logo.dev/casper.com?token=YOUR-LOGODEV-TOKEN
Away,"50 Varick St, New York, NY 10013",37.79,-122.4,https://img.logo.dev/awaytravel.com?token=YOUR-LOGODEV-TOKEN
Glossier,"233 Spring St, New York, NY 10013",37.785,-122.402,https://img.logo.dev/glossier.com?token=YOUR-LOGODEV-TOKEN
Harry\s,"5 Columbus Cir, New York, NY 10019",37.787,-122.398,https://img.logo.dev/harrys.com?token=YOUR-LOGODEV-TOKEN
Outdoor Voices,"309 E 6th St, Austin, TX 78701",37.79,-122.395,https://img.logo.dev/outdoorvoices.com?token=YOUR-LOGODEV-TOKEN
23andMe,"899 W Evelyn Ave, Mountain View, CA 94041",37.389,-122.078,https://img.logo.dev/23andme.com?token=YOUR-LOGODEV-TOKEN
Theranos,"1701 Page Mill Rd, Palo Alto, CA 94304",37.427,-122.141,https://img.logo.dev/theranos.com?token=YOUR-LOGODEV-TOKEN
Flatiron Health,"233 Spring St, New York, NY 10013",37.785,-122.4,https://img.logo.dev/flatiron.com?token=YOUR-LOGODEV-TOKEN
Oscar Health,"295 Lafayette St, New York, NY 10012",37.788,-122.395,https://img.logo.dev/hioscar.com?token=YOUR-LOGODEV-TOKEN
Clover Health,"725 Cool Springs Blvd, Franklin, TN 37067",37.79,-122.398,https://img.logo.dev/cloverhealth.com?token=YOUR-LOGODEV-TOKEN
Ro (Roman),"35 W 31st St, New York, NY 10001",37.785,-122.402,https://img.logo.dev/ro.co?token=YOUR-LOGODEV-TOKEN
Hims & Hers,"32 Bush St, San Francisco, CA 94104",37.791,-122.403,https://img.logo.dev/forhims.com?token=YOUR-LOGODEV-TOKEN
Guardant Health,"505 Penobscot Dr, Redwood City, CA 94063",37.491,-122.227,https://img.logo.dev/guardanthealth.com?token=YOUR-LOGODEV-TOKEN
Veracyte,"6000 Shoreline Ct, South San Francisco, CA 94080",37.656,-122.398,https://img.logo.dev/veracyte.com?token=YOUR-LOGODEV-TOKEN
Ginkgo Bioworks,"27 Drydock Ave, Boston, MA 02210",37.785,-122.4,https://img.logo.dev/ginkgobioworks.com?token=YOUR-LOGODEV-TOKEN
Zymergen,"5980 Horton St, Emeryville, CA 94608",37.831,-122.279,https://img.logo.dev/zymergen.com?token=YOUR-LOGODEV-TOKEN
Twist Bioscience,"681 Gateway Blvd, South San Francisco, CA 94080",37.647,-122.401,https://img.logo.dev/twistbioscience.com?token=YOUR-LOGODEV-TOKEN
Color Genomics,"863 Mitten Rd, Burlingame, CA 94010",37.592,-122.366,https://img.logo.dev/color.com?token=YOUR-LOGODEV-TOKEN
Helix,"1 Circle Star Way, San Carlos, CA 94070",37.507,-122.26,https://img.logo.dev/helix.com?token=YOUR-LOGODEV-TOKEN
Unity Biotechnology,"3280 Bayshore Blvd, Brisbane, CA 94005",37.679,-122.401,https://img.logo.dev/unitybiotechnology.com?token=YOUR-LOGODEV-TOKEN
Mammoth Biosciences,"600 E Grand Ave, South San Francisco, CA 94080",37.652,-122.399,https://img.logo.dev/mammoth.bio?token=YOUR-LOGODEV-TOKEN
Scribe Therapeutics,"1 DNA Way, South San Francisco, CA 94080",37.649,-122.397,https://img.logo.dev/scribe.bio?token=YOUR-LOGODEV-TOKEN
Synthego,"3565 Haven Ave, Menlo Park, CA 94025",37.47,-122.168,https://img.logo.dev/synthego.com?token=YOUR-LOGODEV-TOKEN
Perfect Day,"2161 Delaware St, Berkeley, CA 94709",37.876,-122.267,https://img.logo.dev/perfectday.com?token=YOUR-LOGODEV-TOKEN
Modern Meadow,"99 Kearny St, San Francisco, CA 94108",37.788,-122.404,https://img.logo.dev/modernmeadow.com?token=YOUR-LOGODEV-TOKEN
Roblox,"970 Park Pl, San Mateo, CA 94403",37.553,-122.291,https://img.logo.dev/roblox.com?token=YOUR-LOGODEV-TOKEN
Unity Technologies,"30 3rd St, San Francisco, CA 94103",37.788,-122.401,https://img.logo.dev/unity.com?token=YOUR-LOGODEV-TOKEN
Zynga,"699 8th St, San Francisco, CA 94103",37.77,-122.404,https://img.logo.dev/zynga.com?token=YOUR-LOGODEV-TOKEN
Glu Mobile,"500 Howard St, San Francisco, CA 94105",37.788,-122.396,https://img.logo.dev/glu.com?token=YOUR-LOGODEV-TOKEN
Pocket Gems,"501 Folsom St, San Francisco, CA 94105",37.787,-122.397,https://img.logo.dev/pocketgems.com?token=YOUR-LOGODEV-TOKEN
Machine Zone,"2225 E Bayshore Rd, Palo Alto, CA 94303",37.457,-122.129,https://img.logo.dev/machinezone.com?token=YOUR-LOGODEV-TOKEN
Kabam,"800 Concar Dr, San Mateo, CA 94402",37.554,-122.3,https://img.logo.dev/kabam.com?token=YOUR-LOGODEV-TOKEN
Scopely,"3530 Hayden Ave, Culver City, CA 90232",37.785,-122.4,https://img.logo.dev/scopely.com?token=YOUR-LOGODEV-TOKEN
Skillz,"1061 Market St, San Francisco, CA 94103",37.781,-122.411,https://img.logo.dev/skillz.com?token=YOUR-LOGODEV-TOKEN
Discord,"444 De Haro St, San Francisco, CA 94107",37.765,-122.402,https://img.logo.dev/discord.com?token=YOUR-LOGODEV-TOKEN
Clubhouse,"535 Mission St, San Francisco, CA 94105",37.789,-122.398,https://img.logo.dev/joinclubhouse.com?token=YOUR-LOGODEV-TOKEN
Houseparty,"465 California St, San Francisco, CA 94104",37.793,-122.404,https://img.logo.dev/houseparty.com?token=YOUR-LOGODEV-TOKEN
TikTok,"5800 Bristol Pkwy, Culver City, CA 90230",37.785,-122.398,https://img.logo.dev/tiktok.com?token=YOUR-LOGODEV-TOKEN
Musical.ly,"10900 Wilshire Blvd, Los Angeles, CA 90024",37.788,-122.395,https://img.logo.dev/musical.ly?token=YOUR-LOGODEV-TOKEN
Vine,"1355 Market St, San Francisco, CA 94103",37.777,-122.417,https://img.logo.dev/vine.co?token=YOUR-LOGODEV-TOKEN
Periscope,"1355 Market St, San Francisco, CA 94103",37.777,-122.417,https://img.logo.dev/periscope.tv?token=YOUR-LOGODEV-TOKEN
Meerkat,"548 Market St, San Francisco, CA 94104",37.79,-122.399,https://img.logo.dev/meerkatapp.co?token=YOUR-LOGODEV-TOKEN
Blab,"535 Mission St, San Francisco, CA 94105",37.789,-122.398,https://img.logo.dev/blab.im?token=YOUR-LOGODEV-TOKEN
Medium,"548 Market St, San Francisco, CA 94104",37.79,-122.399,https://img.logo.dev/medium.com?token=YOUR-LOGODEV-TOKEN
Reddit,"420 Taylor St, San Francisco, CA 94102",37.787,-122.412,https://img.logo.dev/reddit.com?token=YOUR-LOGODEV-TOKEN
CrowdStrike,"150 Mathilda Pl, Sunnyvale, CA 94086",37.378,-122.031,https://img.logo.dev/crowdstrike.com?token=YOUR-LOGODEV-TOKEN
Palo Alto Networks,"3000 Tannery Way, Santa Clara, CA 95054",37.374,-121.955,https://img.logo.dev/paloaltonetworks.com?token=YOUR-LOGODEV-TOKEN
Fortinet,"899 Kifer Rd, Sunnyvale, CA 94086",37.377,-122.013,https://img.logo.dev/fortinet.com?token=YOUR-LOGODEV-TOKEN
Zscaler,"120 Holger Way, San Jose, CA 95134",37.411,-121.928,https://img.logo.dev/zscaler.com?token=YOUR-LOGODEV-TOKEN
Proofpoint,"892 Ross Dr, Sunnyvale, CA 94089",37.383,-122.019,https://img.logo.dev/proofpoint.com?token=YOUR-LOGODEV-TOKEN
FireEye,"601 McCarthy Blvd, Milpitas, CA 95035",37.43,-121.918,https://img.logo.dev/fireeye.com?token=YOUR-LOGODEV-TOKEN
Symantec,"350 Ellis St, Mountain View, CA 94043",37.398,-122.054,https://img.logo.dev/symantec.com?token=YOUR-LOGODEV-TOKEN
McAfee,"2821 Mission College Blvd, Santa Clara, CA 95054",37.385,-121.964,https://img.logo.dev/mcafee.com?token=YOUR-LOGODEV-TOKEN
Rapid7,"100 Summer St, Boston, MA 02110",37.785,-122.4,https://img.logo.dev/rapid7.com?token=YOUR-LOGODEV-TOKEN
Qualys,"919 E Hillsdale Blvd, Foster City, CA 94404",37.556,-122.268,https://img.logo.dev/qualys.com?token=YOUR-LOGODEV-TOKEN
Veracode,"65 Network Dr, Burlington, MA 01803",37.785,-122.398,https://img.logo.dev/veracode.com?token=YOUR-LOGODEV-TOKEN
SentinelOne,"444 Castro St, Mountain View, CA 94041",37.385,-122.081,https://img.logo.dev/sentinelone.com?token=YOUR-LOGODEV-TOKEN
Carbon Black,"1100 Winter St, Waltham, MA 02451",37.788,-122.395,https://img.logo.dev/carbonblack.com?token=YOUR-LOGODEV-TOKEN
Cylance,"18201 Von Karman Ave, Irvine, CA 92612",37.79,-122.398,https://img.logo.dev/cylance.com?token=YOUR-LOGODEV-TOKEN
Armis,"350 Ellis St, Mountain View, CA 94043",37.398,-122.054,https://img.logo.dev/armis.com?token=YOUR-LOGODEV-TOKEN
Darktrace,"121 Seaport Blvd, Boston, MA 02210",37.785,-122.402,https://img.logo.dev/darktrace.com?token=YOUR-LOGODEV-TOKEN
Tanium,"2500 El Camino Real, Santa Clara, CA 95051",37.351,-121.949,https://img.logo.dev/tanium.com?token=YOUR-LOGODEV-TOKEN
Lookout,"114 Sansome St, San Francisco, CA 94104",37.791,-122.401,https://img.logo.dev/lookout.com?token=YOUR-LOGODEV-TOKEN
Area 1 Security,"129 S Park St, San Francisco, CA 94107",37.777,-122.394,https://img.logo.dev/area1security.com?token=YOUR-LOGODEV-TOKEN
Netskope,"2445 Augustine Dr, Santa Clara, CA 95054",37.373,-121.963,https://img.logo.dev/netskope.com?token=YOUR-LOGODEV-TOKEN
OpenAI,"3180 18th St, San Francisco, CA 94110",37.762,-122.418,https://img.logo.dev/openai.com?token=YOUR-LOGODEV-TOKEN
Anthropic,"548 Market St, San Francisco, CA 94104",37.79,-122.399,https://img.logo.dev/anthropic.com?token=YOUR-LOGODEV-TOKEN
Scale AI,"548 Market St, San Francisco, CA 94104",37.79,-122.399,https://img.logo.dev/scale.com?token=YOUR-LOGODEV-TOKEN
DataRobot,"225 Franklin St, Boston, MA 02110",37.785,-122.4,https://img.logo.dev/datarobot.com?token=YOUR-LOGODEV-TOKEN
C3.ai,"1300 Seaport Blvd, Redwood City, CA 94063",37.508,-122.201,https://img.logo.dev/c3.ai?token=YOUR-LOGODEV-TOKEN
H2O.ai,"2307 Leghorn St, Mountain View, CA 94043",37.413,-122.08,https://img.logo.dev/h2o.ai?token=YOUR-LOGODEV-TOKEN
Determined AI,"548 Market St, San Francisco, CA 94104",37.79,-122.399,https://img.logo.dev/determined.ai?token=YOUR-LOGODEV-TOKEN
Weights & Biases,"548 Market St, San Francisco, CA 94104",37.79,-122.399,https://img.logo.dev/wandb.ai?token=YOUR-LOGODEV-TOKEN
Hugging Face,"30 W 21st St, New York, NY 10010",37.785,-122.4,https://img.logo.dev/huggingface.co?token=YOUR-LOGODEV-TOKEN
Cohere,"661 University Ave, Palo Alto, CA 94301",37.443,-122.164,https://img.logo.dev/cohere.ai?token=YOUR-LOGODEV-TOKEN
Adept AI,"548 Market St, San Francisco, CA 94104",37.79,-122.399,https://img.logo.dev/adept.ai?token=YOUR-LOGODEV-TOKEN
DeepMind,"1600 Amphitheatre Pkwy, Mountain View, CA 94043",37.422,-122.084,https://img.logo.dev/deepmind.com?token=YOUR-LOGODEV-TOKEN
Vicarious,"2 Tower Pl, San Francisco, CA 94105",37.791,-122.39,https://img.logo.dev/vicarious.com?token=YOUR-LOGODEV-TOKEN
Clarifai,"20 Jay St, Brooklyn, NY 11201",37.785,-122.398,https://img.logo.dev/clarifai.com?token=YOUR-LOGODEV-TOKEN
Avanade,"1191 2nd Ave, Seattle, WA 98101",37.788,-122.395,https://img.logo.dev/avanade.com?token=YOUR-LOGODEV-TOKEN
Brain Corp,"10150 Meanley Dr, San Diego, CA 92131",37.79,-122.4,https://img.logo.dev/braincorp.com?token=YOUR-LOGODEV-TOKEN
Neurala,"196 2nd St, San Francisco, CA 94105",37.787,-122.398,https://img.logo.dev/neurala.com?token=YOUR-LOGODEV-TOKEN
Eyeris,"548 Market St, San Francisco, CA 94104",37.79,-122.399,https://img.logo.dev/eyeris.ai?token=YOUR-LOGODEV-TOKEN
Persado,"200 W 41st St, New York, NY 10036",37.785,-122.402,https://img.logo.dev/persado.com?token=YOUR-LOGODEV-TOKEN
Ayasdi,"4220 Duncan Ave, Palo Alto, CA 94306",37.403,-122.118,https://img.logo.dev/ayasdi.com?token=YOUR-LOGODEV-TOKEN
JetBrains,"989 Market St, San Francisco, CA 94103",37.78,-122.41,https://img.logo.dev/jetbrains.com?token=YOUR-LOGODEV-TOKEN
Docker,"144 Townsend St, San Francisco, CA 94107",37.78,-122.394,https://img.logo.dev/docker.com?token=YOUR-LOGODEV-TOKEN
CircleCI,"548 Market St, San Francisco, CA 94104",37.79,-122.399,https://img.logo.dev/circleci.com?token=YOUR-LOGODEV-TOKEN
Buildkite,"548 Market St, San Francisco, CA 94104",37.79,-122.399,https://img.logo.dev/buildkite.com?token=YOUR-LOGODEV-TOKEN
Travis CI,"132 Hawthorne St, San Francisco, CA 94107",37.784,-122.397,https://img.logo.dev/travis-ci.org?token=YOUR-LOGODEV-TOKEN
Jenkins,"548 Market St, San Francisco, CA 94104",37.79,-122.399,https://img.logo.dev/jenkins.io?token=YOUR-LOGODEV-TOKEN
Puppet,"308 SW 2nd Ave, Portland, OR 97204",37.785,-122.4,https://img.logo.dev/puppet.com?token=YOUR-LOGODEV-TOKEN
Chef,"619 Western Ave, Seattle, WA 98104",37.788,-122.398,https://img.logo.dev/chef.io?token=YOUR-LOGODEV-TOKEN
Ansible,"100 Matsonford Rd, Radnor, PA 19087",37.785,-122.402,https://img.logo.dev/ansible.com?token=YOUR-LOGODEV-TOKEN
Terraform,"101 2nd St, San Francisco, CA 94105",37.788,-122.399,https://img.logo.dev/terraform.io?token=YOUR-LOGODEV-TOKEN
Kubernetes,"1600 Amphitheatre Pkwy, Mountain View, CA 94043",37.422,-122.084,https://img.logo.dev/kubernetes.io?token=YOUR-LOGODEV-TOKEN
PagerDuty,"600 Townsend St, San Francisco, CA 94103",37.771,-122.403,https://img.logo.dev/pagerduty.com?token=YOUR-LOGODEV-TOKEN
Sourcegraph,"548 Market St, San Francisco, CA 94104",37.79,-122.399,https://img.logo.dev/sourcegraph.com?token=YOUR-LOGODEV-TOKEN
Codecov,"548 Market St, San Francisco, CA 94104",37.79,-122.399,https://img.logo.dev/codecov.io?token=YOUR-LOGODEV-TOKEN
Snyk,"530 Lytton Ave, Palo Alto, CA 94301",37.444,-122.158,https://img.logo.dev/snyk.io?token=YOUR-LOGODEV-TOKEN
WhiteSource,"548 Market St, San Francisco, CA 94104",37.79,-122.399,https://img.logo.dev/whitesourcesoftware.com?token=YOUR-LOGODEV-TOKEN
Black Duck,"100 Summer St, Boston, MA 02110",37.785,-122.4,https://img.logo.dev/blackducksoftware.com?token=YOUR-LOGODEV-TOKEN
Sonatype,"8161 Maple Lawn Blvd, Fulton, MD 20759",37.788,-122.395,https://img.logo.dev/sonatype.com?token=YOUR-LOGODEV-TOKEN
Checkmarx,"890 Winter St, Waltham, MA 02451",37.785,-122.402,https://img.logo.dev/checkmarx.com?token=YOUR-LOGODEV-TOKEN
Fortify,"2500 El Camino Real, Santa Clara, CA 95051",37.351,-121.949,https://img.logo.dev/microfocus.com?token=YOUR-LOGODEV-TOKEN
Akamai Technologies,"5502 California St, Burlingame, CA 94107",37.578796,-122.37921,https://img.logo.dev/akamai.com?token=YOUR-LOGODEV-TOKEN
Atlassian,"1596 Main St, Foster City, CA 94612",37.607469,-122.277424,https://img.logo.dev/atlassian.com?token=YOUR-LOGODEV-TOKEN
Autodesk,"1725 King St, South San Francisco, CA 94105",37.637057,-122.44155,https://img.logo.dev/autodesk.com?token=YOUR-LOGODEV-TOKEN
VMware,"9919 University Ave, Foster City, CA 95134",37.547751,-122.320656,https://img.logo.dev/vmware.com?token=YOUR-LOGODEV-TOKEN
Citrix,"6732 Middlefield Rd, Menlo Park, CA 94086",37.466947,-122.220559,https://img.logo.dev/citrix.com?token=YOUR-LOGODEV-TOKEN
F5 Networks,"9949 Harrison St, Hayward, CA 94404",37.650785,-122.067628,https://img.logo.dev/f5networks.com?token=YOUR-LOGODEV-TOKEN
Informatica,"6182 Sand Hill Rd, Redwood City, CA 94404",37.505902,-122.272243,https://img.logo.dev/informatica.com?token=YOUR-LOGODEV-TOKEN
Verisign,"4880 Howard St, Fremont, CA 94301",37.579955,-122.008903,https://img.logo.dev/verisign.com?token=YOUR-LOGODEV-TOKEN
Symantec,"6108 Harrison St, San Francisco, CA 94085",37.73734,-122.390491,https://img.logo.dev/symantec.com?token=YOUR-LOGODEV-TOKEN
Veritas,"3920 Sand Hill Rd, Burlingame, CA 95054",37.589952,-122.321466,https://img.logo.dev/veritas.com?token=YOUR-LOGODEV-TOKEN
Veeam,"8433 Bryant St, Daly City, CA 94005",37.697741,-122.464161,https://img.logo.dev/veeam.com?token=YOUR-LOGODEV-TOKEN
Nutanix,"594 Townsend St, Brisbane, CA 94089",37.652146,-122.358367,https://img.logo.dev/nutanix.com?token=YOUR-LOGODEV-TOKEN
Pure Storage,"8157 Sand Hill Rd, Foster City, CA 94304",37.560824,-122.232272,https://img.logo.dev/purestorage.com?token=YOUR-LOGODEV-TOKEN
Nimble Storage,"6481 Brannan St, Cupertino, CA 95054",37.290003,-122.074281,https://img.logo.dev/nimblestorage.com?token=YOUR-LOGODEV-TOKEN
Cohesity,"2653 Sand Hill Rd, Sunnyvale, CA 94063",37.363311,-122.067938,https://img.logo.dev/cohesity.com?token=YOUR-LOGODEV-TOKEN
Rubrik,"5545 Market St, South San Francisco, CA 94040",37.666091,-122.433972,https://img.logo.dev/rubrik.com?token=YOUR-LOGODEV-TOKEN
Druva,"7143 Bryant St, Santa Clara, CA 95113",37.307656,-121.991145,https://img.logo.dev/druva.com?token=YOUR-LOGODEV-TOKEN
Veritas Technologies,"4597 Berry St, San Francisco, CA 94041",37.80002,-122.445617,https://img.logo.dev/veritas.com?token=YOUR-LOGODEV-TOKEN
Veriflow,"6732 Mission St, Palo Alto, CA 94005",37.394164,-122.18263,https://img.logo.dev/veriflow.com?token=YOUR-LOGODEV-TOKEN
Velocloud,"5066 Sand Hill Rd, Berkeley, CA 94403",37.831538,-122.277579,https://img.logo.dev/velocloud.com?token=YOUR-LOGODEV-TOKEN
Instacart,"941 Howard St, Burlingame, CA 94025",37.594963,-122.36465,https://img.logo.dev/instacart.com?token=YOUR-LOGODEV-TOKEN
DoorDash,"1168 El Camino Real, Milpitas, CA 94041",37.401381,-121.88023,https://img.logo.dev/doordash.com?token=YOUR-LOGODEV-TOKEN
Coinbase,"4616 Main St, Daly City, CA 94612",37.681744,-122.482143,https://img.logo.dev/coinbase.com?token=YOUR-LOGODEV-TOKEN
Gusto,"1793 King St, Foster City, CA 94089",37.552259,-122.226045,https://img.logo.dev/gusto.com?token=YOUR-LOGODEV-TOKEN
Flexport,"182 Main St, Santa Clara, CA 94306",37.38173,-121.980403,https://img.logo.dev/flexport.com?token=YOUR-LOGODEV-TOKEN
Lime,"6753 Harrison St, Daly City, CA 94402",37.716101,-122.476838,https://img.logo.dev/lime.com?token=YOUR-LOGODEV-TOKEN
Bird,"3163 University Ave, San Francisco, CA 94304",37.731204,-122.402631,https://img.logo.dev/bird.com?token=YOUR-LOGODEV-TOKEN
Scooter,"2914 El Camino Real, Palo Alto, CA 94105",37.394847,-122.133501,https://img.logo.dev/scooter.com?token=YOUR-LOGODEV-TOKEN
Turo,"8747 Berry St, Hayward, CA 94103",37.620774,-122.049772,https://img.logo.dev/turo.com?token=YOUR-LOGODEV-TOKEN
Getaround,"7789 Harrison St, Berkeley, CA 94105",37.853183,-122.290932,https://img.logo.dev/getaround.com?token=YOUR-LOGODEV-TOKEN
Sidecar,"448 University Ave, Fremont, CA 95134",37.52165,-121.984574,https://img.logo.dev/sidecar.com?token=YOUR-LOGODEV-TOKEN
Uber Eats,"4526 Brannan St, San Jose, CA 94402",37.309609,-121.864808,https://img.logo.dev/ubereats.com?token=YOUR-LOGODEV-TOKEN
Postmates,"1136 University Ave, Palo Alto, CA 94043",37.412229,-122.118999,https://img.logo.dev/postmates.com?token=YOUR-LOGODEV-TOKEN
Grubhub,"8840 Sand Hill Rd, Fremont, CA 94063",37.566228,-122.002852,https://img.logo.dev/grubhub.com?token=YOUR-LOGODEV-TOKEN
Seamless,"8297 Berry St, Menlo Park, CA 94025",37.443247,-122.158273,https://img.logo.dev/seamless.com?token=YOUR-LOGODEV-TOKEN
Zoom,"1318 Sand Hill Rd, Daly City, CA 94065",37.707185,-122.481051,https://img.logo.dev/zoom.com?token=YOUR-LOGODEV-TOKEN
Slack,"8806 University Ave, Daly City, CA 94005",37.738993,-122.42173,https://img.logo.dev/slack.com?token=YOUR-LOGODEV-TOKEN
Asana,"8975 California St, Cupertino, CA 94301",37.273785,-121.996806,https://img.logo.dev/asana.com?token=YOUR-LOGODEV-TOKEN
Trello,"2536 Middlefield Rd, Daly City, CA 94080",37.706032,-122.459028,https://img.logo.dev/trello.com?token=YOUR-LOGODEV-TOKEN
Monday.com,"2683 Berry St, Redwood City, CA 94005",37.50086,-122.189816,https://img.logo.dev/mondaycom.com?token=YOUR-LOGODEV-TOKEN
Notion,"6553 University Ave, San Mateo, CA 94301",37.527243,-122.370373,https://img.logo.dev/notion.com?token=YOUR-LOGODEV-TOKEN
Airtable,"5177 Berry St, Palo Alto, CA 95110",37.477489,-122.130604,https://img.logo.dev/airtable.com?token=YOUR-LOGODEV-TOKEN
Coda,"4666 Page Mill Rd, Mountain View, CA 94089",37.395064,-122.120018,https://img.logo.dev/coda.com?token=YOUR-LOGODEV-TOKEN
Linear,"8820 Page Mill Rd, Mountain View, CA 95110",37.346951,-122.118183,https://img.logo.dev/linear.com?token=YOUR-LOGODEV-TOKEN
Height,"6965 Bryant St, Hayward, CA 94402",37.696544,-122.102746,https://img.logo.dev/height.com?token=YOUR-LOGODEV-TOKEN
Clickup,"1632 Middlefield Rd, Brisbane, CA 94104",37.711389,-122.350658,https://img.logo.dev/clickup.com?token=YOUR-LOGODEV-TOKEN
Todoist,"8917 Folsom St, South San Francisco, CA 94301",37.692273,-122.43369,https://img.logo.dev/todoist.com?token=YOUR-LOGODEV-TOKEN
Any.do,"3310 Berry St, Fremont, CA 94040",37.500808,-122.02258,https://img.logo.dev/anydo.com?token=YOUR-LOGODEV-TOKEN
Wunderlist,"9109 University Ave, Mountain View, CA 94025",37.379795,-122.048982,https://img.logo.dev/wunderlist.com?token=YOUR-LOGODEV-TOKEN
Evernote,"3309 El Camino Real, Sunnyvale, CA 94612",37.378334,-122.016813,https://img.logo.dev/evernote.com?token=YOUR-LOGODEV-TOKEN
Stripe,"3459 Mission St, Milpitas, CA 94110",37.450944,-121.932162,https://img.logo.dev/stripe.com?token=YOUR-LOGODEV-TOKEN
Square,"1936 King St, South San Francisco, CA 94065",37.689051,-122.373189,https://img.logo.dev/square.com?token=YOUR-LOGODEV-TOKEN
PayPal,"7585 Middlefield Rd, Redwood City, CA 94025",37.509384,-122.251411,https://img.logo.dev/paypal.com?token=YOUR-LOGODEV-TOKEN
Venmo,"7940 Berry St, Daly City, CA 94102",37.716514,-122.450258,https://img.logo.dev/venmo.com?token=YOUR-LOGODEV-TOKEN
Zelle,"1126 Harrison St, San Jose, CA 95051",37.348465,-121.865945,https://img.logo.dev/zelle.com?token=YOUR-LOGODEV-TOKEN
Cash App,"376 Folsom St, Hayward, CA 94404",37.666258,-122.094757,https://img.logo.dev/cashapp.com?token=YOUR-LOGODEV-TOKEN
Apple Pay,"9305 Townsend St, Berkeley, CA 94041",37.907931,-122.261399,https://img.logo.dev/applepay.com?token=YOUR-LOGODEV-TOKEN
Google Pay,"910 Page Mill Rd, Fremont, CA 95051",37.569199,-121.969311,https://img.logo.dev/googlepay.com?token=YOUR-LOGODEV-TOKEN
Plaid,"8463 Bryant St, Burlingame, CA 95051",37.597176,-122.330954,https://img.logo.dev/plaid.com?token=YOUR-LOGODEV-TOKEN
Yodlee,"7415 University Ave, Mountain View, CA 94063",37.349006,-122.059757,https://img.logo.dev/yodlee.com?token=YOUR-LOGODEV-TOKEN
MX,"7044 Market St, Sunnyvale, CA 94133",37.410102,-122.031014,https://img.logo.dev/mx.com?token=YOUR-LOGODEV-TOKEN
Finicity,"275 University Ave, San Jose, CA 94107",37.383314,-121.918924,https://img.logo.dev/finicity.com?token=YOUR-LOGODEV-TOKEN
Quovo,"386 Mission St, San Jose, CA 95113",37.387938,-121.844773,https://img.logo.dev/quovo.com?token=YOUR-LOGODEV-TOKEN
Envestnet,"2153 Main St, Redwood City, CA 95051",37.492233,-122.261053,https://img.logo.dev/envestnet.com?token=YOUR-LOGODEV-TOKEN
Personal Capital,"9766 Page Mill Rd, Milpitas, CA 94133",37.417714,-121.934851,https://img.logo.dev/personalcapital.com?token=YOUR-LOGODEV-TOKEN
Shopify,"2481 University Ave, Santa Clara, CA 94065",37.375934,-121.95931,https://img.logo.dev/shopify.com?token=YOUR-LOGODEV-TOKEN
WooCommerce,"6549 Bryant St, Berkeley, CA 94607",37.879776,-122.287619,https://img.logo.dev/woocommerce.com?token=YOUR-LOGODEV-TOKEN
Magento,"1963 Howard St, Burlingame, CA 94040",37.603755,-122.3797,https://img.logo.dev/magento.com?token=YOUR-LOGODEV-TOKEN
BigCommerce,"3145 Howard St, Brisbane, CA 95014",37.660899,-122.381043,https://img.logo.dev/bigcommerce.com?token=YOUR-LOGODEV-TOKEN
Volusion,"625 Townsend St, Hayward, CA 94041",37.670694,-122.083492,https://img.logo.dev/volusion.com?token=YOUR-LOGODEV-TOKEN
PrestaShop,"3250 University Ave, Fremont, CA 95051",37.528277,-121.995371,https://img.logo.dev/prestashop.com?token=YOUR-LOGODEV-TOKEN
OpenCart,"9691 Berry St, Fremont, CA 94720",37.5798,-121.943189,https://img.logo.dev/opencart.com?token=YOUR-LOGODEV-TOKEN
Wix,"5403 King St, Menlo Park, CA 94301",37.4944,-122.195049,https://img.logo.dev/wix.com?token=YOUR-LOGODEV-TOKEN
Squarespace,"1197 Bryant St, Mountain View, CA 94612",37.337691,-122.065557,https://img.logo.dev/squarespace.com?token=YOUR-LOGODEV-TOKEN
Weebly,"9579 Folsom St, Sunnyvale, CA 94010",37.410462,-122.074703,https://img.logo.dev/weebly.com?token=YOUR-LOGODEV-TOKEN
WordPress,"6780 Main St, Burlingame, CA 94110",37.556972,-122.328429,https://img.logo.dev/wordpress.com?token=YOUR-LOGODEV-TOKEN
Ghost,"575 Mission St, Redwood City, CA 94402",37.503956,-122.187045,https://img.logo.dev/ghost.com?token=YOUR-LOGODEV-TOKEN
Medium,"305 Townsend St, Daly City, CA 94025",37.745937,-122.445288,https://img.logo.dev/medium.com?token=YOUR-LOGODEV-TOKEN
GitHub,"2478 Mission St, Cupertino, CA 95054",37.314682,-122.069729,https://img.logo.dev/github.com?token=YOUR-LOGODEV-TOKEN
GitLab,"7025 Townsend St, Menlo Park, CA 94612",37.45455,-122.181689,https://img.logo.dev/gitlab.com?token=YOUR-LOGODEV-TOKEN
Bitbucket,"5192 Main St, Fremont, CA 95113",37.541628,-122.020917,https://img.logo.dev/bitbucket.com?token=YOUR-LOGODEV-TOKEN
SourceForge,"8379 Howard St, San Mateo, CA 94043",37.596173,-122.327431,https://img.logo.dev/sourceforge.com?token=YOUR-LOGODEV-TOKEN
CodePen,"5112 Mission St, Fremont, CA 94025",37.504383,-121.946759,https://img.logo.dev/codepen.com?token=YOUR-LOGODEV-TOKEN
JSFiddle,"7562 Brannan St, Burlingame, CA 94041",37.597638,-122.375239,https://img.logo.dev/jsfiddle.com?token=YOUR-LOGODEV-TOKEN
Repl.it,"4839 Brannan St, Fremont, CA 94063",37.529683,-121.967275,https://img.logo.dev/replit.com?token=YOUR-LOGODEV-TOKEN
CodeSandbox,"5582 Middlefield Rd, Daly City, CA 94403",37.663289,-122.459867,https://img.logo.dev/codesandbox.com?token=YOUR-LOGODEV-TOKEN
Glitch,"1322 El Camino Real, Hayward, CA 94065",37.714429,-122.058987,https://img.logo.dev/glitch.com?token=YOUR-LOGODEV-TOKEN
Heroku,"464 Berry St, Mountain View, CA 94607",37.375114,-122.085677,https://img.logo.dev/heroku.com?token=YOUR-LOGODEV-TOKEN
Netlify,"5943 California St, Burlingame, CA 94107",37.601164,-122.361487,https://img.logo.dev/netlify.com?token=YOUR-LOGODEV-TOKEN
Vercel,"8678 University Ave, Milpitas, CA 94403",37.425211,-121.883318,https://img.logo.dev/vercel.com?token=YOUR-LOGODEV-TOKEN
Railway,"2812 King St, Hayward, CA 94133",37.714431,-122.049105,https://img.logo.dev/railway.com?token=YOUR-LOGODEV-TOKEN
Render,"7453 Harrison St, Milpitas, CA 95054",37.472849,-121.858914,https://img.logo.dev/render.com?token=YOUR-LOGODEV-TOKEN
AWS,"5057 California St, Menlo Park, CA 94010",37.499418,-122.132591,https://img.logo.dev/aws.com?token=YOUR-LOGODEV-TOKEN
Azure,"4192 Page Mill Rd, Burlingame, CA 94304",37.600655,-122.371718,https://img.logo.dev/azure.com?token=YOUR-LOGODEV-TOKEN
Google Cloud,"4637 Main St, Palo Alto, CA 94158",37.409346,-122.098727,https://img.logo.dev/googlecloud.com?token=YOUR-LOGODEV-TOKEN
DigitalOcean,"7354 University Ave, South San Francisco, CA 94104",37.681456,-122.444358,https://img.logo.dev/digitalocean.com?token=YOUR-LOGODEV-TOKEN
Linode,"2486 Market St, Burlingame, CA 95014",37.563295,-122.388902,https://img.logo.dev/linode.com?token=YOUR-LOGODEV-TOKEN
Vultr,"3128 Middlefield Rd, Menlo Park, CA 95014",37.410107,-122.150968,https://img.logo.dev/vultr.com?token=YOUR-LOGODEV-TOKEN
Hetzner,"295 Brannan St, Mountain View, CA 94404",37.352136,-122.0544,https://img.logo.dev/hetzner.com?token=YOUR-LOGODEV-TOKEN
OVH,"7734 King St, Oakland, CA 94404",37.777711,-122.292134,https://img.logo.dev/ovh.com?token=YOUR-LOGODEV-TOKEN
Scaleway,"7661 Sand Hill Rd, Fremont, CA 95054",37.592109,-122.020103,https://img.logo.dev/scaleway.com?token=YOUR-LOGODEV-TOKEN
Packet,"9564 Brannan St, San Mateo, CA 94404",37.540123,-122.28399,https://img.logo.dev/packet.com?token=YOUR-LOGODEV-TOKEN
Equinix,"8822 Howard St, Sunnyvale, CA 94102",37.371036,-122.036733,https://img.logo.dev/equinix.com?token=YOUR-LOGODEV-TOKEN
Cloudflare,"9175 Berry St, Milpitas, CA 94040",37.410863,-121.853659,https://img.logo.dev/cloudflare.com?token=YOUR-LOGODEV-TOKEN
Fastly,"1353 University Ave, Burlingame, CA 94133",37.550309,-122.355627,https://img.logo.dev/fastly.com?token=YOUR-LOGODEV-TOKEN
KeyCDN,"6807 Market St, Foster City, CA 95054",37.59189,-122.232347,https://img.logo.dev/keycdn.com?token=YOUR-LOGODEV-TOKEN
Google Analytics,"4042 Townsend St, Daly City, CA 95110",37.749466,-122.418285,https://img.logo.dev/googleanalytics.com?token=YOUR-LOGODEV-TOKEN
Adobe Analytics,"2295 University Ave, Hayward, CA 94041",37.668164,-122.062144,https://img.logo.dev/adobeanalytics.com?token=YOUR-LOGODEV-TOKEN
Mixpanel,"9503 California St, Cupertino, CA 94063",37.323188,-122.019665,https://img.logo.dev/mixpanel.com?token=YOUR-LOGODEV-TOKEN
Amplitude,"8728 Middlefield Rd, Santa Clara, CA 94607",37.392427,-122.00429,https://img.logo.dev/amplitude.com?token=YOUR-LOGODEV-TOKEN
Segment,"7308 Harrison St, Milpitas, CA 94104",37.459159,-121.951624,https://img.logo.dev/segment.com?token=YOUR-LOGODEV-TOKEN
Heap,"9367 Main St, Redwood City, CA 94105",37.493392,-122.236495,https://img.logo.dev/heap.com?token=YOUR-LOGODEV-TOKEN
Hotjar,"5182 Brannan St, Berkeley, CA 94102",37.828216,-122.265397,https://img.logo.dev/hotjar.com?token=YOUR-LOGODEV-TOKEN
FullStory,"8909 Folsom St, Oakland, CA 94607",37.813418,-122.288141,https://img.logo.dev/fullstory.com?token=YOUR-LOGODEV-TOKEN
LogRocket,"5994 University Ave, Berkeley, CA 94133",37.868464,-122.232725,https://img.logo.dev/logrocket.com?token=YOUR-LOGODEV-TOKEN
Smartlook,"4292 Folsom St, San Mateo, CA 94065",37.51864,-122.324641,https://img.logo.dev/smartlook.com?token=YOUR-LOGODEV-TOKEN
Crazy Egg,"5146 Folsom St, Burlingame, CA 95051",37.60117,-122.333919,https://img.logo.dev/crazyegg.com?token=YOUR-LOGODEV-TOKEN
Optimizely,"7396 Howard St, Cupertino, CA 94404",37.318741,-122.075631,https://img.logo.dev/optimizely.com?token=YOUR-LOGODEV-TOKEN
Slack,"8893 Mission St, Brisbane, CA 94110",37.720917,-122.372126,https://img.logo.dev/slack.com?token=YOUR-LOGODEV-TOKEN
Microsoft Teams,"7038 Harrison St, Mountain View, CA 94105",37.387429,-122.12732,https://img.logo.dev/microsoftteams.com?token=YOUR-LOGODEV-TOKEN
Discord,"9038 Mission St, Brisbane, CA 94089",37.643891,-122.425952,https://img.logo.dev/discord.com?token=YOUR-LOGODEV-TOKEN
Telegram,"5867 Brannan St, Santa Clara, CA 95110",37.324035,-121.937978,https://img.logo.dev/telegram.com?token=YOUR-LOGODEV-TOKEN
WhatsApp,"7842 Main St, Berkeley, CA 94065",37.844627,-122.30401,https://img.logo.dev/whatsapp.com?token=YOUR-LOGODEV-TOKEN
Signal,"9598 Middlefield Rd, San Jose, CA 94065",37.353595,-121.843208,https://img.logo.dev/signal.com?token=YOUR-LOGODEV-TOKEN
Zoom,"2316 Middlefield Rd, Brisbane, CA 95051",37.66431,-122.440644,https://img.logo.dev/zoom.com?token=YOUR-LOGODEV-TOKEN
Google Meet,"9997 Bryant St, Cupertino, CA 95134",37.297866,-122.047284,https://img.logo.dev/googlemeet.com?token=YOUR-LOGODEV-TOKEN
Skype,"6938 Sand Hill Rd, Oakland, CA 94041",37.82356,-122.24517,https://img.logo.dev/skype.com?token=YOUR-LOGODEV-TOKEN
WebEx,"3601 University Ave, Hayward, CA 94010",37.656701,-122.087641,https://img.logo.dev/webex.com?token=YOUR-LOGODEV-TOKEN
GoToMeeting,"2797 Harrison St, Cupertino, CA 95113",37.346327,-122.058568,https://img.logo.dev/gotomeeting.com?token=YOUR-LOGODEV-TOKEN
BlueJeans,"3935 Townsend St, Brisbane, CA 94025",37.644264,-122.367266,https://img.logo.dev/bluejeans.com?token=YOUR-LOGODEV-TOKEN
Roblox,"7872 Mission St, Milpitas, CA 95014",37.395713,-121.887971,https://img.logo.dev/roblox.com?token=YOUR-LOGODEV-TOKEN
Unity,"5690 Brannan St, Daly City, CA 94304",37.744173,-122.495189,https://img.logo.dev/unity.com?token=YOUR-LOGODEV-TOKEN
Unreal Engine,"7346 King St, Santa Clara, CA 95134",37.363529,-121.983919,https://img.logo.dev/unrealengine.com?token=YOUR-LOGODEV-TOKEN
Godot,"666 Harrison St, Palo Alto, CA 94133",37.487562,-122.098464,https://img.logo.dev/godot.com?token=YOUR-LOGODEV-TOKEN
GameMaker,"3999 Middlefield Rd, Cupertino, CA 94010",37.27603,-122.001997,https://img.logo.dev/gamemaker.com?token=YOUR-LOGODEV-TOKEN
Construct,"6102 Middlefield Rd, Brisbane, CA 94301",37.676803,-122.392034,https://img.logo.dev/construct.com?token=YOUR-LOGODEV-TOKEN
Twitch,"9239 California St, Redwood City, CA 94402",37.52501,-122.193974,https://img.logo.dev/twitch.com?token=YOUR-LOGODEV-TOKEN
YouTube Gaming,"2881 King St, Oakland, CA 94612",37.847635,-122.231092,https://img.logo.dev/youtubegaming.com?token=YOUR-LOGODEV-TOKEN
Facebook Gaming,"7149 California St, Palo Alto, CA 94041",37.404156,-122.192805,https://img.logo.dev/facebookgaming.com?token=YOUR-LOGODEV-TOKEN
Mixer,"6535 Bryant St, Daly City, CA 94107",37.717241,-122.484099,https://img.logo.dev/mixer.com?token=YOUR-LOGODEV-TOKEN
Steam,"8183 California St, Cupertino, CA 95110",37.362876,-122.049039,https://img.logo.dev/steam.com?token=YOUR-LOGODEV-TOKEN
Epic Games,"1716 Harrison St, San Jose, CA 94089",37.37683,-121.906587,https://img.logo.dev/epicgames.com?token=YOUR-LOGODEV-TOKEN
Intel,"9744 Harrison St, San Jose, CA 94403",37.31724,-121.873155,https://img.logo.dev/intel.com?token=YOUR-LOGODEV-TOKEN
AMD,"3066 Brannan St, Daly City, CA 94103",37.729352,-122.424334,https://img.logo.dev/amd.com?token=YOUR-LOGODEV-TOKEN
NVIDIA,"5264 Bryant St, Milpitas, CA 94612",37.481235,-121.895048,https://img.logo.dev/nvidia.com?token=YOUR-LOGODEV-TOKEN
Qualcomm,"2789 Bryant St, Foster City, CA 94063",37.596169,-122.297891,https://img.logo.dev/qualcomm.com?token=YOUR-LOGODEV-TOKEN
Broadcom,"6388 Townsend St, Foster City, CA 94063",37.594531,-122.2802,https://img.logo.dev/broadcom.com?token=YOUR-LOGODEV-TOKEN
Marvell,"7627 Townsend St, Santa Clara, CA 94065",37.338153,-121.93872,https://img.logo.dev/marvell.com?token=YOUR-LOGODEV-TOKEN
Micron,"8990 Sand Hill Rd, Hayward, CA 95110",37.703257,-122.071342,https://img.logo.dev/micron.com?token=YOUR-LOGODEV-TOKEN
Western Digital,"4698 El Camino Real, Sunnyvale, CA 95054",37.359112,-121.995261,https://img.logo.dev/westerndigital.com?token=YOUR-LOGODEV-TOKEN
Seagate,"377 Sand Hill Rd, San Jose, CA 94133",37.346783,-121.905187,https://img.logo.dev/seagate.com?token=YOUR-LOGODEV-TOKEN
SanDisk,"7377 Page Mill Rd, Palo Alto, CA 95110",37.490905,-122.171893,https://img.logo.dev/sandisk.com?token=YOUR-LOGODEV-TOKEN
Kingston,"3205 Berry St, Menlo Park, CA 94110",37.475282,-122.219019,https://img.logo.dev/kingston.com?token=YOUR-LOGODEV-TOKEN
Corsair,"4979 Berry St, San Jose, CA 94063",37.381233,-121.929656,https://img.logo.dev/corsair.com?token=YOUR-LOGODEV-TOKEN
ASUS,"1205 Howard St, Sunnyvale, CA 94403",37.372632,-122.008234,https://img.logo.dev/asus.com?token=YOUR-LOGODEV-TOKEN
Firebase,"4789 Sand Hill Rd, Hayward, CA 95134",37.664336,-122.064401,https://img.logo.dev/firebase.com?token=YOUR-LOGODEV-TOKEN
Realm,"1169 Bryant St, Hayward, CA 94107",37.621708,-122.061302,https://img.logo.dev/realm.com?token=YOUR-LOGODEV-TOKEN
Parse,"6097 Berry St, Mountain View, CA 94025",37.360228,-122.100651,https://img.logo.dev/parse.com?token=YOUR-LOGODEV-TOKEN
Back4App,"886 California St, Foster City, CA 94612",37.555103,-122.255194,https://img.logo.dev/back4app.com?token=YOUR-LOGODEV-TOKEN
Supabase,"3904 Harrison St, South San Francisco, CA 94111",37.656009,-122.396115,https://img.logo.dev/supabase.com?token=YOUR-LOGODEV-TOKEN
PlanetScale,"3986 Mission St, Santa Clara, CA 94110",37.395204,-121.9209,https://img.logo.dev/planetscale.com?token=YOUR-LOGODEV-TOKEN
Neon,"9391 Harrison St, Burlingame, CA 94025",37.55587,-122.401686,https://img.logo.dev/neon.com?token=YOUR-LOGODEV-TOKEN
FaunaDB,"5392 Market St, Berkeley, CA 94105",37.831911,-122.271488,https://img.logo.dev/faunadb.com?token=YOUR-LOGODEV-TOKEN
MongoDB Atlas,"9575 Harrison St, Menlo Park, CA 94103",37.466526,-122.164499,https://img.logo.dev/mongodbatlas.com?token=YOUR-LOGODEV-TOKEN
DynamoDB,"1416 California St, Burlingame, CA 94104",37.622246,-122.378969,https://img.logo.dev/dynamodb.com?token=YOUR-LOGODEV-TOKEN
CockroachDB,"7392 El Camino Real, San Mateo, CA 94304",37.515189,-122.34016,https://img.logo.dev/cockroachdb.com?token=YOUR-LOGODEV-TOKEN
TiDB,"72 Harrison St, Sunnyvale, CA 95134",37.339177,-122.067142,https://img.logo.dev/tidb.com?token=YOUR-LOGODEV-TOKEN
Okta,"9335 Main St, Daly City, CA 94403",37.688015,-122.459744,https://img.logo.dev/okta.com?token=YOUR-LOGODEV-TOKEN
Auth0,"1938 Middlefield Rd, Milpitas, CA 94133",37.44676,-121.887444,https://img.logo.dev/auth0.com?token=YOUR-LOGODEV-TOKEN
Ping Identity,"9278 University Ave, Hayward, CA 94005",37.626106,-122.0622,https://img.logo.dev/pingidentity.com?token=YOUR-LOGODEV-TOKEN
OneLogin,"5826 California St, Berkeley, CA 94158",37.913122,-122.289509,https://img.logo.dev/onelogin.com?token=YOUR-LOGODEV-TOKEN
JumpCloud,"5304 Harrison St, Daly City, CA 94612",37.671819,-122.485786,https://img.logo.dev/jumpcloud.com?token=YOUR-LOGODEV-TOKEN
Duo Security,"9022 Market St, Hayward, CA 94403",37.70156,-122.113211,https://img.logo.dev/duosecurity.com?token=YOUR-LOGODEV-TOKEN
RSA Security,"1602 Howard St, Mountain View, CA 95110",37.385212,-122.040223,https://img.logo.dev/rsasecurity.com?token=YOUR-LOGODEV-TOKEN
Gemalto,"3873 California St, Brisbane, CA 94402",37.631137,-122.414597,https://img.logo.dev/gemalto.com?token=YOUR-LOGODEV-TOKEN
Thales,"3333 Sand Hill Rd, Daly City, CA 94103",37.693718,-122.495739,https://img.logo.dev/thales.com?token=YOUR-LOGODEV-TOKEN
SafeNet,"7951 Market St, South San Francisco, CA 94104",37.637849,-122.384721,https://img.logo.dev/safenet.com?token=YOUR-LOGODEV-TOKEN
Entrust,"3776 Market St, Brisbane, CA 94089",37.663207,-122.438081,https://img.logo.dev/entrust.com?token=YOUR-LOGODEV-TOKEN
DigiCert,"5965 Middlefield Rd, Fremont, CA 94404",37.5398,-121.998678,https://img.logo.dev/digicert.com?token=YOUR-LOGODEV-TOKEN
HubSpot,"8770 Howard St, Burlingame, CA 94404",37.611756,-122.400009,https://img.logo.dev/hubspot.com?token=YOUR-LOGODEV-TOKEN
Marketo,"8111 Market St, San Francisco, CA 95054",37.812345,-122.369945,https://img.logo.dev/marketo.com?token=YOUR-LOGODEV-TOKEN
Pardot,"2013 Sand Hill Rd, South San Francisco, CA 94025",37.640275,-122.401376,https://img.logo.dev/pardot.com?token=YOUR-LOGODEV-TOKEN
Mailchimp,"4377 Middlefield Rd, Foster City, CA 94102",37.593428,-122.296837,https://img.logo.dev/mailchimp.com?token=YOUR-LOGODEV-TOKEN
Constant Contact,"6204 El Camino Real, Mountain View, CA 94403",37.357409,-122.079538,https://img.logo.dev/constantcontact.com?token=YOUR-LOGODEV-TOKEN
Campaign Monitor,"2073 El Camino Real, Cupertino, CA 95110",37.289311,-122.021407,https://img.logo.dev/campaignmonitor.com?token=YOUR-LOGODEV-TOKEN
AWeber,"8447 King St, Sunnyvale, CA 94304",37.402093,-122.02912,https://img.logo.dev/aweber.com?token=YOUR-LOGODEV-TOKEN
GetResponse,"9744 Folsom St, Brisbane, CA 95054",37.693855,-122.419934,https://img.logo.dev/getresponse.com?token=YOUR-LOGODEV-TOKEN
ConvertKit,"894 University Ave, Sunnyvale, CA 95113",37.37745,-122.059224,https://img.logo.dev/convertkit.com?token=YOUR-LOGODEV-TOKEN
Drip,"4323 Harrison St, Milpitas, CA 94005",37.394286,-121.924101,https://img.logo.dev/drip.com?token=YOUR-LOGODEV-TOKEN
ActiveCampaign,"4149 Page Mill Rd, Fremont, CA 94041",37.572599,-122.004906,https://img.logo.dev/activecampaign.com?token=YOUR-LOGODEV-TOKEN
Klaviyo,"4765 Howard St, Milpitas, CA 94104",37.397369,-121.899189,https://img.logo.dev/klaviyo.com?token=YOUR-LOGODEV-TOKEN
Workday,"6312 Page Mill Rd, Oakland, CA 94612",37.819625,-122.237936,https://img.logo.dev/workday.com?token=YOUR-LOGODEV-TOKEN
SuccessFactors,"1512 Market St, Sunnyvale, CA 94086",37.3788,-122.052093,https://img.logo.dev/successfactors.com?token=YOUR-LOGODEV-TOKEN
BambooHR,"2507 Market St, Hayward, CA 94041",37.713946,-122.061276,https://img.logo.dev/bamboohr.com?token=YOUR-LOGODEV-TOKEN
Zenefits,"8224 Berry St, Santa Clara, CA 94040",37.389973,-121.972182,https://img.logo.dev/zenefits.com?token=YOUR-LOGODEV-TOKEN
Gusto,"3905 Folsom St, Hayward, CA 95054",37.63774,-122.097285,https://img.logo.dev/gusto.com?token=YOUR-LOGODEV-TOKEN
ADP,"5038 Townsend St, Milpitas, CA 94402",37.45906,-121.859891,https://img.logo.dev/adp.com?token=YOUR-LOGODEV-TOKEN
Paychex,"4226 Brannan St, Sunnyvale, CA 94404",37.331629,-122.000798,https://img.logo.dev/paychex.com?token=YOUR-LOGODEV-TOKEN
Rippling,"7130 Howard St, South San Francisco, CA 94102",37.689547,-122.413888,https://img.logo.dev/rippling.com?token=YOUR-LOGODEV-TOKEN
Namely,"7365 Berry St, San Francisco, CA 94612",37.807498,-122.458241,https://img.logo.dev/namely.com?token=YOUR-LOGODEV-TOKEN
Greenhouse,"2512 University Ave, Fremont, CA 95134",37.560065,-121.965394,https://img.logo.dev/greenhouse.com?token=YOUR-LOGODEV-TOKEN
Lever,"8221 Brannan St, Santa Clara, CA 94301",37.375753,-121.967297,https://img.logo.dev/lever.com?token=YOUR-LOGODEV-TOKEN
Workable,"3587 Sand Hill Rd, Oakland, CA 94041",37.813554,-122.25432,https://img.logo.dev/workable.com?token=YOUR-LOGODEV-TOKEN
Salesforce Commerce Cloud,"1382 Mission St, San Francisco, CA 95051",37.73072,-122.454952,https://img.logo.dev/salesforcecommercecloud.com?token=YOUR-LOGODEV-TOKEN
Tableau Software,"5472 Main St, Foster City, CA 94301",37.552141,-122.256101,https://img.logo.dev/tableausoftware.com?token=YOUR-LOGODEV-TOKEN
MuleSoft,"9618 Howard St, Foster City, CA 94102",37.530311,-122.261068,https://img.logo.dev/mulesoft.com?token=YOUR-LOGODEV-TOKEN
Heroku,"5981 Bryant St, Burlingame, CA 94301",37.553433,-122.388614,https://img.logo.dev/heroku.com?token=YOUR-LOGODEV-TOKEN
Slack Technologies,"198 Mission St, Burlingame, CA 94133",37.622634,-122.357372,https://img.logo.dev/slack.com?token=YOUR-LOGODEV-TOKEN
Box Inc,"7990 Main St, Redwood City, CA 95110",37.514019,-122.234713,https://img.logo.dev/box.com?token=YOUR-LOGODEV-TOKEN
Dropbox Inc,"1688 Sand Hill Rd, Sunnyvale, CA 94102",37.37092,-122.028804,https://img.logo.dev/dropbox.com?token=YOUR-LOGODEV-TOKEN
Zendesk Inc,"755 Bryant St, Berkeley, CA 94089",37.847957,-122.317598,https://img.logo.dev/zendesk.com?token=YOUR-LOGODEV-TOKEN
ServiceNow Inc,"2505 Brannan St, Redwood City, CA 94607",37.492043,-122.268989,https://img.logo.dev/servicenow.com?token=YOUR-LOGODEV-TOKEN
Workday Inc,"5722 Howard St, San Jose, CA 94005",37.310836,-121.907888,https://img.logo.dev/workday.com?token=YOUR-LOGODEV-TOKEN
Atlassian Corp,"8627 Berry St, Foster City, CA 94607",37.523588,-122.320199,https://img.logo.dev/atlassian.com?token=YOUR-LOGODEV-TOKEN
MongoDB Inc,"472 Harrison St, South San Francisco, CA 94607",37.648536,-122.373702,https://img.logo.dev/mongodb.com?token=YOUR-LOGODEV-TOKEN
Elastic NV,"1187 Page Mill Rd, Palo Alto, CA 94110",37.432401,-122.127473,https://img.logo.dev/elasticnv.com?token=YOUR-LOGODEV-TOKEN
Splunk Inc,"6042 Mission St, Daly City, CA 94085",37.752768,-122.506123,https://img.logo.dev/splunk.com?token=YOUR-LOGODEV-TOKEN
New Relic Inc,"2080 El Camino Real, Oakland, CA 94085",37.764848,-122.264656,https://img.logo.dev/newrelic.com?token=YOUR-LOGODEV-TOKEN
Datadog Inc,"2775 Folsom St, Sunnyvale, CA 94158",37.32677,-122.05528,https://img.logo.dev/datadog.com?token=YOUR-LOGODEV-TOKEN
PagerDuty Inc,"6486 Market St, Cupertino, CA 94040",37.359115,-122.039461,https://img.logo.dev/pagerduty.com?token=YOUR-LOGODEV-TOKEN
Okta Inc,"2990 El Camino Real, Menlo Park, CA 94010",37.483109,-122.193298,https://img.logo.dev/okta.com?token=YOUR-LOGODEV-TOKEN
Zoom Video,"9107 King St, San Mateo, CA 94104",37.550747,-122.309353,https://img.logo.dev/zoomvideo.com?token=YOUR-LOGODEV-TOKEN
DocuSign Inc,"1377 El Camino Real, Burlingame, CA 95014",37.630524,-122.398927,https://img.logo.dev/docusign.com?token=YOUR-LOGODEV-TOKEN
Twilio Inc,"5182 Berry St, San Francisco, CA 95113",37.801849,-122.467195,https://img.logo.dev/twilio.com?token=YOUR-LOGODEV-TOKEN
SendGrid,"355 King St, San Francisco, CA 95110",37.811442,-122.418925,https://img.logo.dev/sendgrid.com?token=YOUR-LOGODEV-TOKEN
Mailgun Technologies,"9485 King St, Mountain View, CA 94010",37.344241,-122.068314,https://img.logo.dev/mailgun.com?token=YOUR-LOGODEV-TOKEN
Adyen,"5536 Folsom St, Redwood City, CA 94607",37.45354,-122.255389,https://img.logo.dev/adyen.com?token=YOUR-LOGODEV-TOKEN
Klarna Inc,"9441 Harrison St, Burlingame, CA 94103",37.600839,-122.394603,https://img.logo.dev/klarna.com?token=YOUR-LOGODEV-TOKEN
Afterpay,"4807 Brannan St, San Jose, CA 94089",37.303674,-121.874276,https://img.logo.dev/afterpay.com?token=YOUR-LOGODEV-TOKEN
Affirm Inc,"558 Folsom St, Berkeley, CA 94111",37.880816,-122.229459,https://img.logo.dev/affirm.com?token=YOUR-LOGODEV-TOKEN
Sezzle,"3373 Brannan St, Santa Clara, CA 94085",37.312444,-121.935613,https://img.logo.dev/sezzle.com?token=YOUR-LOGODEV-TOKEN
Quadpay,"5297 California St, Cupertino, CA 95110",37.340229,-122.016478,https://img.logo.dev/quadpay.com?token=YOUR-LOGODEV-TOKEN
Splitit,"3697 Townsend St, Berkeley, CA 94085",37.884276,-122.279674,https://img.logo.dev/splitit.com?token=YOUR-LOGODEV-TOKEN
Laybuy,"3092 University Ave, Palo Alto, CA 94102",37.436209,-122.096664,https://img.logo.dev/laybuy.com?token=YOUR-LOGODEV-TOKEN
Braintree,"9793 Folsom St, Burlingame, CA 94158",37.544075,-122.324857,https://img.logo.dev/braintree.com?token=YOUR-LOGODEV-TOKEN
PayPal Credit,"5051 Market St, San Francisco, CA 94720",37.761704,-122.429254,https://img.logo.dev/paypalcredit.com?token=YOUR-LOGODEV-TOKEN
Venmo Business,"9282 Howard St, Menlo Park, CA 94010",37.435657,-122.216017,https://img.logo.dev/venmobusiness.com?token=YOUR-LOGODEV-TOKEN
Zelle Network,"9082 Bryant St, Mountain View, CA 94005",37.389312,-122.086467,https://img.logo.dev/zellenetwork.com?token=YOUR-LOGODEV-TOKEN
Dwolla Inc,"5117 Townsend St, San Francisco, CA 94063",37.789319,-122.423543,https://img.logo.dev/dwolla.com?token=YOUR-LOGODEV-TOKEN
Circle Internet,"7757 Page Mill Rd, San Jose, CA 95051",37.310337,-121.868197,https://img.logo.dev/circleinternet.com?token=YOUR-LOGODEV-TOKEN
Ripple Labs,"151 Page Mill Rd, Oakland, CA 94607",37.758682,-122.243166,https://img.logo.dev/ripplelabs.com?token=YOUR-LOGODEV-TOKEN
Stellar Development,"7618 Bryant St, Menlo Park, CA 94063",37.477829,-122.167197,https://img.logo.dev/stellardevelopment.com?token=YOUR-LOGODEV-TOKEN
Chainlink Labs,"8479 El Camino Real, San Mateo, CA 94040",37.607011,-122.342797,https://img.logo.dev/chainlinklabs.com?token=YOUR-LOGODEV-TOKEN
Uniswap Labs,"982 Berry St, Burlingame, CA 94103",37.562758,-122.341999,https://img.logo.dev/uniswaplabs.com?token=YOUR-LOGODEV-TOKEN
Compound Labs,"5477 Mission St, Cupertino, CA 94005",37.294192,-122.052669,https://img.logo.dev/compoundlabs.com?token=YOUR-LOGODEV-TOKEN
Databricks Inc,"4915 Brannan St, Foster City, CA 95113",37.528704,-122.304793,https://img.logo.dev/databricks.com?token=YOUR-LOGODEV-TOKEN
Snowflake Inc,"4511 Folsom St, Milpitas, CA 94089",37.43992,-121.853552,https://img.logo.dev/snowflake.com?token=YOUR-LOGODEV-TOKEN
Palantir Technologies,"4934 Sand Hill Rd, Burlingame, CA 94133",37.57916,-122.384953,https://img.logo.dev/palantir.com?token=YOUR-LOGODEV-TOKEN
C3 AI Inc,"6838 Main St, San Jose, CA 94107",37.358943,-121.885952,https://img.logo.dev/c3ai.com?token=YOUR-LOGODEV-TOKEN
DataRobot Inc,"350 Sand Hill Rd, Menlo Park, CA 94133",37.460825,-122.207292,https://img.logo.dev/datarobot.com?token=YOUR-LOGODEV-TOKEN
H2O.ai Inc,"1730 Mission St, Foster City, CA 94065",37.534848,-122.265963,https://img.logo.dev/h2oai.com?token=YOUR-LOGODEV-TOKEN
Alteryx Inc,"9409 Middlefield Rd, San Mateo, CA 94607",37.53271,-122.342271,https://img.logo.dev/alteryx.com?token=YOUR-LOGODEV-TOKEN
Tableau CRM,"9709 Bryant St, Cupertino, CA 94086",37.280073,-122.061271,https://img.logo.dev/tableaucrm.com?token=YOUR-LOGODEV-TOKEN
Domo Inc,"6803 Berry St, South San Francisco, CA 94103",37.610663,-122.397878,https://img.logo.dev/domo.com?token=YOUR-LOGODEV-TOKEN
Looker Data,"1682 Berry St, Hayward, CA 94010",37.715793,-122.032842,https://img.logo.dev/lookerdata.com?token=YOUR-LOGODEV-TOKEN
Sisense Ltd,"3050 California St, Brisbane, CA 94086",37.644968,-122.372539,https://img.logo.dev/sisenseltd.com?token=YOUR-LOGODEV-TOKEN
Qlik Technologies,"8848 California St, San Francisco, CA 95054",37.77923,-122.458707,https://img.logo.dev/qlik.com?token=YOUR-LOGODEV-TOKEN
Spotfire,"8266 King St, Burlingame, CA 94304",37.596124,-122.355423,https://img.logo.dev/spotfire.com?token=YOUR-LOGODEV-TOKEN
MicroStrategy,"7799 Mission St, Fremont, CA 94111",37.593454,-121.946185,https://img.logo.dev/microstrategy.com?token=YOUR-LOGODEV-TOKEN
SAS Institute,"618 Howard St, Foster City, CA 94304",37.573967,-122.270008,https://img.logo.dev/sasinstitute.com?token=YOUR-LOGODEV-TOKEN
IBM Watson,"4917 Market St, San Francisco, CA 94104",37.793305,-122.425636,https://img.logo.dev/ibmwatson.com?token=YOUR-LOGODEV-TOKEN
CrowdStrike Holdings,"9480 Harrison St, Cupertino, CA 94063",37.365351,-122.066442,https://img.logo.dev/crowdstrikeholdings.com?token=YOUR-LOGODEV-TOKEN
SentinelOne Inc,"6815 Mission St, Hayward, CA 94085",37.669052,-122.103949,https://img.logo.dev/sentinelone.com?token=YOUR-LOGODEV-TOKEN
Zscaler Inc,"7158 Mission St, Fremont, CA 94080",37.507469,-121.958336,https://img.logo.dev/zscaler.com?token=YOUR-LOGODEV-TOKEN
Proofpoint Inc,"161 Folsom St, San Francisco, CA 94065",37.775809,-122.404078,https://img.logo.dev/proofpoint.com?token=YOUR-LOGODEV-TOKEN
Rapid7 Inc,"127 Mission St, Santa Clara, CA 94086",37.393371,-121.971458,https://img.logo.dev/rapid7.com?token=YOUR-LOGODEV-TOKEN
Qualys Inc,"4429 Bryant St, Brisbane, CA 94404",37.645823,-122.385065,https://img.logo.dev/qualys.com?token=YOUR-LOGODEV-TOKEN
Veracode Inc,"5768 Sand Hill Rd, Cupertino, CA 94025",37.284021,-121.98488,https://img.logo.dev/veracode.com?token=YOUR-LOGODEV-TOKEN
Checkmarx Ltd,"5243 Sand Hill Rd, Fremont, CA 94005",37.587635,-121.966169,https://img.logo.dev/checkmarxltd.com?token=YOUR-LOGODEV-TOKEN
Snyk Ltd,"1486 Main St, Hayward, CA 94086",37.64374,-122.080592,https://img.logo.dev/snykltd.com?token=YOUR-LOGODEV-TOKEN
WhiteSource Software,"8526 Bryant St, Menlo Park, CA 94403",37.417363,-122.225796,https://img.logo.dev/whitesourcesoftware.com?token=YOUR-LOGODEV-TOKEN
Sonatype Inc,"3089 California St, Fremont, CA 94089",37.592081,-121.965091,https://img.logo.dev/sonatype.com?token=YOUR-LOGODEV-TOKEN
Black Duck Software,"5966 Howard St, South San Francisco, CA 94103",37.650779,-122.442532,https://img.logo.dev/blackducksoftware.com?token=YOUR-LOGODEV-TOKEN
Synopsis Inc,"1442 California St, Daly City, CA 95110",37.697831,-122.45519,https://img.logo.dev/synopsis.com?token=YOUR-LOGODEV-TOKEN
Fortify Software,"9288 King St, San Jose, CA 94040",37.301702,-121.913195,https://img.logo.dev/fortifysoftware.com?token=YOUR-LOGODEV-TOKEN
AppSec,"7808 Page Mill Rd, Daly City, CA 94105",37.686826,-122.42365,https://img.logo.dev/appsec.com?token=YOUR-LOGODEV-TOKEN
JetBrains Inc,"5732 Townsend St, Daly City, CA 94041",37.753567,-122.44164,https://img.logo.dev/jetbrains.com?token=YOUR-LOGODEV-TOKEN
GitHub Inc,"5051 Bryant St, Foster City, CA 94720",37.526282,-122.303837,https://img.logo.dev/github.com?token=YOUR-LOGODEV-TOKEN
GitLab Inc,"1159 Market St, Palo Alto, CA 95014",37.413293,-122.114063,https://img.logo.dev/gitlab.com?token=YOUR-LOGODEV-TOKEN
Bitbucket,"6250 Mission St, San Jose, CA 94158",37.31049,-121.924472,https://img.logo.dev/bitbucket.com?token=YOUR-LOGODEV-TOKEN
SourceForge,"1583 Bryant St, Berkeley, CA 94304",37.825752,-122.313394,https://img.logo.dev/sourceforge.com?token=YOUR-LOGODEV-TOKEN
CodePen,"736 Townsend St, Hayward, CA 94306",37.630458,-122.084837,https://img.logo.dev/codepen.com?token=YOUR-LOGODEV-TOKEN
JSFiddle,"7074 Brannan St, Foster City, CA 94089",37.565322,-122.30803,https://img.logo.dev/jsfiddle.com?token=YOUR-LOGODEV-TOKEN
Replit Inc,"8611 King St, Foster City, CA 94107",37.522754,-122.247821,https://img.logo.dev/replit.com?token=YOUR-LOGODEV-TOKEN
CodeSandbox,"387 University Ave, San Mateo, CA 94010",37.541698,-122.338217,https://img.logo.dev/codesandbox.com?token=YOUR-LOGODEV-TOKEN
Glitch Inc,"4104 Mission St, Foster City, CA 94133",37.542773,-122.280403,https://img.logo.dev/glitch.com?token=YOUR-LOGODEV-TOKEN
Heroku Inc,"1579 Harrison St, Sunnyvale, CA 94080",37.418441,-122.049748,https://img.logo.dev/heroku.com?token=YOUR-LOGODEV-TOKEN
Netlify Inc,"8181 Page Mill Rd, Mountain View, CA 94089",37.398916,-122.039597,https://img.logo.dev/netlify.com?token=YOUR-LOGODEV-TOKEN
Vercel Inc,"2849 Page Mill Rd, Oakland, CA 94158",37.813779,-122.303054,https://img.logo.dev/vercel.com?token=YOUR-LOGODEV-TOKEN
Railway Corp,"5169 Page Mill Rd, Menlo Park, CA 94607",37.490453,-122.171048,https://img.logo.dev/railway.com?token=YOUR-LOGODEV-TOKEN
Render Inc,"1784 Mission St, Oakland, CA 94010",37.82531,-122.252413,https://img.logo.dev/render.com?token=YOUR-LOGODEV-TOKEN
DigitalOcean,"2782 King St, Berkeley, CA 94063",37.885675,-122.297643,https://img.logo.dev/digitalocean.com?token=YOUR-LOGODEV-TOKEN
Linode LLC,"1832 California St, Foster City, CA 94612",37.512432,-122.259302,https://img.logo.dev/linode.com?token=YOUR-LOGODEV-TOKEN
Vultr Holdings,"5848 Page Mill Rd, Sunnyvale, CA 94158",37.35424,-121.988972,https://img.logo.dev/vultrholdings.com?token=YOUR-LOGODEV-TOKEN
Cloudflare Inc,"1828 Bryant St, Berkeley, CA 94102",37.893089,-122.231752,https://img.logo.dev/cloudflare.com?token=YOUR-LOGODEV-TOKEN
Fastly Inc,"6633 Sand Hill Rd, Berkeley, CA 94103",37.889725,-122.306526,https://img.logo.dev/fastly.com?token=YOUR-LOGODEV-TOKEN
KeyCDN,"516 Bryant St, Daly City, CA 94025",37.753298,-122.485258,https://img.logo.dev/keycdn.com?token=YOUR-LOGODEV-TOKEN
Amazon CloudFront,"4826 Main St, Fremont, CA 94304",37.524005,-121.974626,https://img.logo.dev/amazoncloudfront.com?token=YOUR-LOGODEV-TOKEN
Google Cloud CDN,"8057 California St, Foster City, CA 95110",37.598513,-122.28584,https://img.logo.dev/googlecloudcdn.com?token=YOUR-LOGODEV-TOKEN
Azure CDN,"9735 Brannan St, Brisbane, CA 94063",37.648795,-122.435631,https://img.logo.dev/azurecdn.com?token=YOUR-LOGODEV-TOKEN
Akamai CDN,"2849 Folsom St, San Jose, CA 94607",37.303511,-121.889001,https://img.logo.dev/akamaicdn.com?token=YOUR-LOGODEV-TOKEN
CloudFoundry,"3669 Brannan St, South San Francisco, CA 94402",37.670688,-122.450096,https://img.logo.dev/cloudfoundry.com?token=YOUR-LOGODEV-TOKEN
Red Hat OpenShift,"1180 Berry St, Mountain View, CA 95014",37.388164,-122.040703,https://img.logo.dev/redhatopenshift.com?token=YOUR-LOGODEV-TOKEN
Kubernetes Inc,"3109 King St, Redwood City, CA 94063",37.490414,-122.235692,https://img.logo.dev/kubernetes.com?token=YOUR-LOGODEV-TOKEN
Docker Inc,"2794 Sand Hill Rd, Fremont, CA 94103",37.513252,-121.939535,https://img.logo.dev/docker.com?token=YOUR-LOGODEV-TOKEN
containerd,"5809 Middlefield Rd, Hayward, CA 95051",37.686917,-122.036632,https://img.logo.dev/containerd.com?token=YOUR-LOGODEV-TOKEN
Podman,"663 Brannan St, Santa Clara, CA 94306",37.335685,-121.977428,https://img.logo.dev/podman.com?token=YOUR-LOGODEV-TOKEN
LXC,"589 Middlefield Rd, Daly City, CA 94105",37.690515,-122.490223,https://img.logo.dev/lxc.com?token=YOUR-LOGODEV-TOKEN
Singularity,"2163 Brannan St, Oakland, CA 94010",37.804784,-122.303825,https://img.logo.dev/singularity.com?token=YOUR-LOGODEV-TOKEN
Nomad,"4632 Howard St, South San Francisco, CA 94110",37.623977,-122.391113,https://img.logo.dev/nomad.com?token=YOUR-LOGODEV-TOKEN
Consul,"2878 Middlefield Rd, Hayward, CA 94158",37.62666,-122.055008,https://img.logo.dev/consul.com?token=YOUR-LOGODEV-TOKEN
Google Analytics 360,"9207 Berry St, Burlingame, CA 94158",37.55861,-122.348589,https://img.logo.dev/googleanalytics360.com?token=YOUR-LOGODEV-TOKEN
Adobe Analytics Cloud,"4896 Berry St, Oakland, CA 94043",37.804587,-122.248173,https://img.logo.dev/adobeanalyticscloud.com?token=YOUR-LOGODEV-TOKEN
Mixpanel Inc,"395 Howard St, Foster City, CA 94103",37.539571,-122.243536,https://img.logo.dev/mixpanel.com?token=YOUR-LOGODEV-TOKEN
Amplitude Inc,"8126 Berry St, San Jose, CA 94104",37.358554,-121.897804,https://img.logo.dev/amplitude.com?token=YOUR-LOGODEV-TOKEN
Segment Inc,"6175 Sand Hill Rd, Sunnyvale, CA 94107",37.401488,-122.001881,https://img.logo.dev/segment.com?token=YOUR-LOGODEV-TOKEN
Heap Analytics,"867 Page Mill Rd, Sunnyvale, CA 94104",37.332153,-122.049078,https://img.logo.dev/heapanalytics.com?token=YOUR-LOGODEV-TOKEN
Hotjar Ltd,"2827 Mission St, San Jose, CA 94040",37.369981,-121.916795,https://img.logo.dev/hotjarltd.com?token=YOUR-LOGODEV-TOKEN
FullStory Inc,"8330 Townsend St, Redwood City, CA 94403",37.472579,-122.240369,https://img.logo.dev/fullstory.com?token=YOUR-LOGODEV-TOKEN
LogRocket Inc,"7837 Folsom St, Sunnyvale, CA 94102",37.367016,-122.027863,https://img.logo.dev/logrocket.com?token=YOUR-LOGODEV-TOKEN
Smartlook,"941 Harrison St, Mountain View, CA 94086",37.363777,-122.13204,https://img.logo.dev/smartlook.com?token=YOUR-LOGODEV-TOKEN
Crazy Egg Inc,"1863 Howard St, Mountain View, CA 94107",37.392598,-122.104305,https://img.logo.dev/crazyegg.com?token=YOUR-LOGODEV-TOKEN
Optimizely Inc,"5359 Market St, Hayward, CA 94086",37.680603,-122.117269,https://img.logo.dev/optimizely.com?token=YOUR-LOGODEV-TOKEN
VWO,"9653 Page Mill Rd, Milpitas, CA 94080",37.451537,-121.889833,https://img.logo.dev/vwo.com?token=YOUR-LOGODEV-TOKEN
Google Optimize,"7753 Mission St, Hayward, CA 94111",37.649652,-122.036547,https://img.logo.dev/googleoptimize.com?token=YOUR-LOGODEV-TOKEN
Adobe Target,"4760 Bryant St, Menlo Park, CA 94105",37.440322,-122.207938,https://img.logo.dev/adobetarget.com?token=YOUR-LOGODEV-TOKEN
Unity Technologies,"6921 University Ave, Palo Alto, CA 94065",37.409524,-122.129214,https://img.logo.dev/unity.com?token=YOUR-LOGODEV-TOKEN
Unreal Engine,"2884 Middlefield Rd, Menlo Park, CA 94404",37.419981,-122.16863,https://img.logo.dev/unrealengine.com?token=YOUR-LOGODEV-TOKEN
Godot Engine,"8670 California St, Sunnyvale, CA 94107",37.416145,-121.993992,https://img.logo.dev/godotengine.com?token=YOUR-LOGODEV-TOKEN
GameMaker Studio,"8859 Howard St, San Mateo, CA 94065",37.585733,-122.275715,https://img.logo.dev/gamemakerstudio.com?token=YOUR-LOGODEV-TOKEN
Construct 3,"6419 Brannan St, Redwood City, CA 94086",37.462543,-122.241731,https://img.logo.dev/construct3.com?token=YOUR-LOGODEV-TOKEN
Defold,"7116 California St, Palo Alto, CA 94110",37.430281,-122.10373,https://img.logo.dev/defold.com?token=YOUR-LOGODEV-TOKEN
Solar2D,"9731 Page Mill Rd, Redwood City, CA 94107",37.525236,-122.268804,https://img.logo.dev/solar2d.com?token=YOUR-LOGODEV-TOKEN
Cocos2d,"7043 Berry St, Mountain View, CA 94403",37.378292,-122.084678,https://img.logo.dev/cocos2d.com?token=YOUR-LOGODEV-TOKEN
Phaser,"5715 Brannan St, San Mateo, CA 94402",37.579954,-122.342664,https://img.logo.dev/phaser.com?token=YOUR-LOGODEV-TOKEN
Three.js,"6885 Main St, South San Francisco, CA 94102",37.61228,-122.363343,https://img.logo.dev/threejs.com?token=YOUR-LOGODEV-TOKEN
Babylon.js,"1737 Bryant St, Mountain View, CA 95110",37.422933,-122.104044,https://img.logo.dev/babylonjs.com?token=YOUR-LOGODEV-TOKEN
PlayCanvas,"7636 Brannan St, San Francisco, CA 95110",37.82251,-122.423673,https://img.logo.dev/playcanvas.com?token=YOUR-LOGODEV-TOKEN
Roblox Corporation,"6085 Brannan St, Redwood City, CA 94065",37.471554,-122.193381,https://img.logo.dev/robloxoration.com?token=YOUR-LOGODEV-TOKEN
Epic Games Inc,"8828 Sand Hill Rd, Oakland, CA 94010",37.845734,-122.312563,https://img.logo.dev/epicgames.com?token=YOUR-LOGODEV-TOKEN
Valve Corporation,"1778 Middlefield Rd, Brisbane, CA 95054",37.702797,-122.37465,https://img.logo.dev/valveoration.com?token=YOUR-LOGODEV-TOKEN
Steam Platform,"717 King St, Sunnyvale, CA 94102",37.398933,-122.023632,https://img.logo.dev/steamplatform.com?token=YOUR-LOGODEV-TOKEN
React Native,"3876 California St, Cupertino, CA 94040",37.341415,-122.032247,https://img.logo.dev/reactnative.com?token=YOUR-LOGODEV-TOKEN
Flutter Framework,"2694 Howard St, South San Francisco, CA 94133",37.684623,-122.38702,https://img.logo.dev/flutterframework.com?token=YOUR-LOGODEV-TOKEN
Xamarin,"4729 Market St, Milpitas, CA 94612",37.434385,-121.892921,https://img.logo.dev/xamarin.com?token=YOUR-LOGODEV-TOKEN
Ionic Framework,"9801 Market St, Berkeley, CA 94010",37.855475,-122.30712,https://img.logo.dev/ionicframework.com?token=YOUR-LOGODEV-TOKEN
Cordova,"3880 Bryant St, South San Francisco, CA 94304",37.621671,-122.395379,https://img.logo.dev/cordova.com?token=YOUR-LOGODEV-TOKEN
PhoneGap,"6115 Sand Hill Rd, Cupertino, CA 94306",37.299287,-122.048986,https://img.logo.dev/phonegap.com?token=YOUR-LOGODEV-TOKEN
Appcelerator,"5899 Howard St, Redwood City, CA 94040",37.487006,-122.260238,https://img.logo.dev/appcelerator.com?token=YOUR-LOGODEV-TOKEN
Sencha Touch,"9834 Market St, Burlingame, CA 94040",37.582629,-122.343018,https://img.logo.dev/senchatouch.com?token=YOUR-LOGODEV-TOKEN
jQuery Mobile,"2958 Sand Hill Rd, South San Francisco, CA 95014",37.649012,-122.431015,https://img.logo.dev/jquerymobile.com?token=YOUR-LOGODEV-TOKEN
Framework7,"7280 Berry St, Sunnyvale, CA 95113",37.356446,-122.033519,https://img.logo.dev/framework7.com?token=YOUR-LOGODEV-TOKEN
Onsen UI,"4956 Folsom St, Sunnyvale, CA 95051",37.41603,-122.022742,https://img.logo.dev/onsenui.com?token=YOUR-LOGODEV-TOKEN
Quasar Framework,"9479 Howard St, Milpitas, CA 95113",37.466998,-121.945592,https://img.logo.dev/quasarframework.com?token=YOUR-LOGODEV-TOKEN
Shopify Inc,"3029 Harrison St, Burlingame, CA 94080",37.558829,-122.386906,https://img.logo.dev/shopify.com?token=YOUR-LOGODEV-TOKEN
WooCommerce,"4599 Berry St, San Francisco, CA 94080",37.752446,-122.45966,https://img.logo.dev/woocommerce.com?token=YOUR-LOGODEV-TOKEN
Magento Commerce,"651 King St, Menlo Park, CA 94404",37.434953,-122.190452,https://img.logo.dev/magentocommerce.com?token=YOUR-LOGODEV-TOKEN
BigCommerce Holdings,"3034 King St, Burlingame, CA 94010",37.608568,-122.324625,https://img.logo.dev/bigcommerceholdings.com?token=YOUR-LOGODEV-TOKEN
Volusion Inc,"764 King St, Hayward, CA 94065",37.634766,-122.073134,https://img.logo.dev/volusion.com?token=YOUR-LOGODEV-TOKEN
PrestaShop,"9384 Mission St, Fremont, CA 94089",37.562126,-122.006362,https://img.logo.dev/prestashop.com?token=YOUR-LOGODEV-TOKEN
OpenCart,"29 Market St, Oakland, CA 94041",37.840852,-122.290245,https://img.logo.dev/opencart.com?token=YOUR-LOGODEV-TOKEN
osCommerce,"164 Main St, Daly City, CA 94041",37.712841,-122.418432,https://img.logo.dev/oscommerce.com?token=YOUR-LOGODEV-TOKEN
Zen Cart,"366 Berry St, Foster City, CA 94103",37.550468,-122.252681,https://img.logo.dev/zencart.com?token=YOUR-LOGODEV-TOKEN
X-Cart,"5924 Page Mill Rd, Daly City, CA 94403",37.723771,-122.419495,https://img.logo.dev/xcart.com?token=YOUR-LOGODEV-TOKEN
CS-Cart,"4624 Sand Hill Rd, Milpitas, CA 94133",37.422562,-121.85553,https://img.logo.dev/cscart.com?token=YOUR-LOGODEV-TOKEN
nopCommerce,"9686 Main St, Milpitas, CA 94104",37.475694,-121.860533,https://img.logo.dev/nopcommerce.com?token=YOUR-LOGODEV-TOKEN
Salesforce CRM,"1502 Main St, Hayward, CA 94301",37.661288,-122.071146,https://img.logo.dev/salesforcecrm.com?token=YOUR-LOGODEV-TOKEN
HubSpot CRM,"4478 Harrison St, Mountain View, CA 94306",37.419672,-122.088935,https://img.logo.dev/hubspotcrm.com?token=YOUR-LOGODEV-TOKEN
Pipedrive,"8125 Berry St, Brisbane, CA 94404",37.708126,-122.393831,https://img.logo.dev/pipedrive.com?token=YOUR-LOGODEV-TOKEN
Zoho CRM,"9591 Sand Hill Rd, Santa Clara, CA 95134",37.342841,-121.999954,https://img.logo.dev/zohocrm.com?token=YOUR-LOGODEV-TOKEN
SugarCRM,"2600 Page Mill Rd, Burlingame, CA 94111",37.62204,-122.318674,https://img.logo.dev/sugarcrm.com?token=YOUR-LOGODEV-TOKEN
vtiger CRM,"9736 Berry St, South San Francisco, CA 94089",37.700425,-122.425814,https://img.logo.dev/vtigercrm.com?token=YOUR-LOGODEV-TOKEN
SuiteCRM,"9664 El Camino Real, Santa Clara, CA 94063",37.32586,-121.907803,https://img.logo.dev/suitecrm.com?token=YOUR-LOGODEV-TOKEN
Freshworks CRM,"4830 Sand Hill Rd, South San Francisco, CA 94103",37.637608,-122.398044,https://img.logo.dev/freshworkscrm.com?token=YOUR-LOGODEV-TOKEN
Insightly,"7820 Townsend St, Hayward, CA 94301",37.718241,-122.07218,https://img.logo.dev/insightly.com?token=YOUR-LOGODEV-TOKEN
Nutshell CRM,"1773 Main St, Palo Alto, CA 94104",37.456487,-122.158226,https://img.logo.dev/nutsherm.com?token=YOUR-LOGODEV-TOKEN
Close CRM,"4943 Market St, Fremont, CA 94080",37.580408,-121.961775,https://img.logo.dev/closecrm.com?token=YOUR-LOGODEV-TOKEN
Copper CRM,"7180 Brannan St, Cupertino, CA 94104",37.357444,-122.082046,https://img.logo.dev/coppercrm.com?token=YOUR-LOGODEV-TOKEN
Marketo Engage,"8636 University Ave, San Francisco, CA 95134",37.735648,-122.444745,https://img.logo.dev/marketoengage.com?token=YOUR-LOGODEV-TOKEN
Pardot,"6325 Market St, Burlingame, CA 94005",37.556595,-122.322567,https://img.logo.dev/pardot.com?token=YOUR-LOGODEV-TOKEN
Mailchimp,"4815 Sand Hill Rd, South San Francisco, CA 94403",37.623865,-122.366711,https://img.logo.dev/mailchimp.com?token=YOUR-LOGODEV-TOKEN
Constant Contact,"9563 Mission St, Fremont, CA 94089",37.528856,-122.006691,https://img.logo.dev/constantcontact.com?token=YOUR-LOGODEV-TOKEN
Campaign Monitor,"1542 Berry St, Fremont, CA 94104",37.511624,-121.984542,https://img.logo.dev/campaignmonitor.com?token=YOUR-LOGODEV-TOKEN
AWeber Communications,"6146 Berry St, Palo Alto, CA 94404",37.475883,-122.19016,https://img.logo.dev/awebercommunications.com?token=YOUR-LOGODEV-TOKEN
GetResponse,"3395 Bryant St, Milpitas, CA 94404",37.438397,-121.887545,https://img.logo.dev/getresponse.com?token=YOUR-LOGODEV-TOKEN
ConvertKit,"4084 Harrison St, San Francisco, CA 94102",37.804132,-122.428214,https://img.logo.dev/convertkit.com?token=YOUR-LOGODEV-TOKEN
Drip,"8911 Sand Hill Rd, San Mateo, CA 94065",37.521767,-122.317906,https://img.logo.dev/drip.com?token=YOUR-LOGODEV-TOKEN
ActiveCampaign,"1773 University Ave, Cupertino, CA 94063",37.29158,-122.038305,https://img.logo.dev/activecampaign.com?token=YOUR-LOGODEV-TOKEN
Klaviyo Inc,"2783 Main St, San Mateo, CA 94102",37.570495,-122.328543,https://img.logo.dev/klaviyo.com?token=YOUR-LOGODEV-TOKEN
Sendinblue,"1421 Main St, San Jose, CA 94158",37.311741,-121.850125,https://img.logo.dev/sendinblue.com?token=YOUR-LOGODEV-TOKEN
MailerLite,"5581 King St, Hayward, CA 94301",37.637998,-122.033836,https://img.logo.dev/mailerlite.com?token=YOUR-LOGODEV-TOKEN
Moosend,"9444 Bryant St, Sunnyvale, CA 94086",37.367589,-122.052466,https://img.logo.dev/moosend.com?token=YOUR-LOGODEV-TOKEN
Benchmark Email,"1777 Market St, San Mateo, CA 94103",37.586938,-122.310577,https://img.logo.dev/benchmarkemail.com?token=YOUR-LOGODEV-TOKEN
iContact,"308 California St, Sunnyvale, CA 94104",37.410647,-122.074558,https://img.logo.dev/icontact.com?token=YOUR-LOGODEV-TOKEN
Asana Inc,"9023 Sand Hill Rd, Brisbane, CA 94040",37.665042,-122.364674,https://img.logo.dev/asana.com?token=YOUR-LOGODEV-TOKEN
Trello Inc,"8850 Bryant St, Palo Alto, CA 95014",37.454647,-122.15146,https://img.logo.dev/trello.com?token=YOUR-LOGODEV-TOKEN
Monday.com Ltd,"3896 Sand Hill Rd, Redwood City, CA 94158",37.475867,-122.249344,https://img.logo.dev/mondaycomltd.com?token=YOUR-LOGODEV-TOKEN
Notion Labs,"1382 Howard St, Oakland, CA 94105",37.823426,-122.290758,https://img.logo.dev/notionlabs.com?token=YOUR-LOGODEV-TOKEN
Airtable Inc,"6544 Bryant St, Brisbane, CA 94063",37.662073,-122.384546,https://img.logo.dev/airtable.com?token=YOUR-LOGODEV-TOKEN
Coda Inc,"7487 Brannan St, Brisbane, CA 94103",37.652902,-122.406929,https://img.logo.dev/coda.com?token=YOUR-LOGODEV-TOKEN
Linear Inc,"4571 Market St, Cupertino, CA 94005",37.291734,-122.04252,https://img.logo.dev/linear.com?token=YOUR-LOGODEV-TOKEN
Height Inc,"6229 Folsom St, Mountain View, CA 94720",37.409264,-122.115663,https://img.logo.dev/height.com?token=YOUR-LOGODEV-TOKEN
ClickUp Inc,"2634 Harrison St, Burlingame, CA 94105",37.629877,-122.331583,https://img.logo.dev/clickup.com?token=YOUR-LOGODEV-TOKEN
Todoist Inc,"2468 El Camino Real, San Francisco, CA 95113",37.758522,-122.382122,https://img.logo.dev/todoist.com?token=YOUR-LOGODEV-TOKEN
Any.do,"8249 Main St, South San Francisco, CA 94720",37.657845,-122.360545,https://img.logo.dev/anydo.com?token=YOUR-LOGODEV-TOKEN
Wunderlist,"841 California St, Daly City, CA 94720",37.750186,-122.480311,https://img.logo.dev/wunderlist.com?token=YOUR-LOGODEV-TOKEN
Evernote Corporation,"7132 Main St, Menlo Park, CA 94085",37.437823,-122.208607,https://img.logo.dev/evernoteoration.com?token=YOUR-LOGODEV-TOKEN
OneNote,"4828 Harrison St, Menlo Park, CA 94158",37.484497,-122.175226,https://img.logo.dev/onenote.com?token=YOUR-LOGODEV-TOKEN
Bear App,"1183 Main St, Oakland, CA 95134",37.780685,-122.2798,https://img.logo.dev/bearapp.com?token=YOUR-LOGODEV-TOKEN
Roam Research,"8995 University Ave, Daly City, CA 94404",37.681779,-122.479629,https://img.logo.dev/roamresearch.com?token=YOUR-LOGODEV-TOKEN
Obsidian,"1531 Main St, Redwood City, CA 95054",37.451804,-122.210139,https://img.logo.dev/obsidian.com?token=YOUR-LOGODEV-TOKEN
RemNote,"4555 Sand Hill Rd, Cupertino, CA 94010",37.362163,-122.050933,https://img.logo.dev/remnote.com?token=YOUR-LOGODEV-TOKEN
Slack Technologies,"3217 Main St, Menlo Park, CA 94104",37.431218,-122.223638,https://img.logo.dev/slack.com?token=YOUR-LOGODEV-TOKEN
Microsoft Teams,"1467 California St, Daly City, CA 94107",37.702482,-122.480343,https://img.logo.dev/microsoftteams.com?token=YOUR-LOGODEV-TOKEN
Discord Inc,"5091 Main St, Palo Alto, CA 95051",37.436438,-122.146254,https://img.logo.dev/discord.com?token=YOUR-LOGODEV-TOKEN
Telegram Messenger,"6512 Main St, Mountain View, CA 94404",37.374708,-122.091549,https://img.logo.dev/telegrammessenger.com?token=YOUR-LOGODEV-TOKEN
Signal Messenger,"9226 Middlefield Rd, San Jose, CA 94402",37.296034,-121.875734,https://img.logo.dev/signalmessenger.com?token=YOUR-LOGODEV-TOKEN
WhatsApp Inc,"7420 Sand Hill Rd, San Mateo, CA 94041",37.567745,-122.29731,https://img.logo.dev/whatsapp.com?token=YOUR-LOGODEV-TOKEN
WeChat,"5203 Townsend St, Cupertino, CA 94102",37.30704,-122.009834,https://img.logo.dev/wechat.com?token=YOUR-LOGODEV-TOKEN
Line Corporation,"9776 Main St, San Jose, CA 94043",37.362825,-121.842601,https://img.logo.dev/lineoration.com?token=YOUR-LOGODEV-TOKEN
Viber Media,"2605 Howard St, Hayward, CA 94065",37.672256,-122.068964,https://img.logo.dev/vibermedia.com?token=YOUR-LOGODEV-TOKEN
Snapchat Inc,"5264 Brannan St, Daly City, CA 94065",37.696456,-122.454201,https://img.logo.dev/snapchat.com?token=YOUR-LOGODEV-TOKEN
TikTok Inc,"6572 Folsom St, Milpitas, CA 94005",37.416459,-121.905733,https://img.logo.dev/tiktok.com?token=YOUR-LOGODEV-TOKEN
Zoom Communications,"314 Bryant St, Palo Alto, CA 94107",37.404969,-122.12558,https://img.logo.dev/zoomcommunications.com?token=YOUR-LOGODEV-TOKEN
Google Meet,"837 Bryant St, Burlingame, CA 95054",37.574682,-122.387319,https://img.logo.dev/googlemeet.com?token=YOUR-LOGODEV-TOKEN
Microsoft Teams,"3081 Berry St, Daly City, CA 94010",37.741081,-122.455914,https://img.logo.dev/microsoftteams.com?token=YOUR-LOGODEV-TOKEN
Skype Technologies,"6897 Main St, San Mateo, CA 94041",37.566643,-122.349587,https://img.logo.dev/skype.com?token=YOUR-LOGODEV-TOKEN
Cisco WebEx,"3245 Main St, Milpitas, CA 95113",37.401488,-121.857278,https://img.logo.dev/ciscowebex.com?token=YOUR-LOGODEV-TOKEN
GoToMeeting,"7251 Brannan St, Santa Clara, CA 94403",37.361087,-121.955747,https://img.logo.dev/gotomeeting.com?token=YOUR-LOGODEV-TOKEN
BlueJeans Network,"7669 Townsend St, Redwood City, CA 94158",37.452761,-122.241299,https://img.logo.dev/bluejeansnetwork.com?token=YOUR-LOGODEV-TOKEN
Jitsi Meet,"9192 Main St, South San Francisco, CA 94025",37.640023,-122.401737,https://img.logo.dev/jitsimeet.com?token=YOUR-LOGODEV-TOKEN
BigBlueButton,"7256 Folsom St, Cupertino, CA 94612",37.282485,-122.063972,https://img.logo.dev/bigbluebutton.com?token=YOUR-LOGODEV-TOKEN
appear.in,"2952 Howard St, Fremont, CA 94104",37.55102,-121.997152,https://img.logo.dev/appearin.com?token=YOUR-LOGODEV-TOKEN
Whereby,"5205 Page Mill Rd, Mountain View, CA 94110",37.396553,-122.06623,https://img.logo.dev/whereby.com?token=YOUR-LOGODEV-TOKEN
Adobe Creative Cloud,"8670 Market St, San Francisco, CA 94720",37.817659,-122.386274,https://img.logo.dev/adobecreativecloud.com?token=YOUR-LOGODEV-TOKEN
Figma Inc,"9506 Folsom St, Milpitas, CA 94005",37.456071,-121.891716,https://img.logo.dev/figma.com?token=YOUR-LOGODEV-TOKEN
Sketch App,"650 California St, Daly City, CA 94402",37.710668,-122.441258,https://img.logo.dev/sketchapp.com?token=YOUR-LOGODEV-TOKEN
InVision App,"6951 Market St, Brisbane, CA 94104",37.631337,-122.396487,https://img.logo.dev/invisionapp.com?token=YOUR-LOGODEV-TOKEN
Adobe XD,"2137 Brannan St, Hayward, CA 94103",37.710119,-122.09432,https://img.logo.dev/adobexd.com?token=YOUR-LOGODEV-TOKEN
Principle,"777 Townsend St, Cupertino, CA 94102",37.320023,-121.993124,https://img.logo.dev/priple.com?token=YOUR-LOGODEV-TOKEN
Framer Inc,"9006 University Ave, San Francisco, CA 94158",37.736057,-122.443466,https://img.logo.dev/framer.com?token=YOUR-LOGODEV-TOKEN
Marvel App,"7650 Folsom St, Milpitas, CA 94103",37.406717,-121.923105,https://img.logo.dev/marvelapp.com?token=YOUR-LOGODEV-TOKEN
Balsamiq Studios,"8485 Main St, Menlo Park, CA 94104",37.413779,-122.215763,https://img.logo.dev/balsamiqstudios.com?token=YOUR-LOGODEV-TOKEN
Axure Software,"8204 Townsend St, Sunnyvale, CA 94105",37.372943,-122.022656,https://img.logo.dev/axuresoftware.com?token=YOUR-LOGODEV-TOKEN
Lucidchart,"2641 Howard St, South San Francisco, CA 95113",37.64282,-122.456446,https://img.logo.dev/lucidchart.com?token=YOUR-LOGODEV-TOKEN
draw.io,"4260 California St, Menlo Park, CA 95110",37.412221,-122.210029,https://img.logo.dev/drawio.com?token=YOUR-LOGODEV-TOKEN
Google Workspace,"2744 Mission St, Milpitas, CA 94402",37.38746,-121.851908,https://img.logo.dev/googleworkspace.com?token=YOUR-LOGODEV-TOKEN
Microsoft 365,"5446 Middlefield Rd, Fremont, CA 94402",37.534044,-122.03036,https://img.logo.dev/microsoft365.com?token=YOUR-LOGODEV-TOKEN
Zoho Workplace,"7988 Howard St, Menlo Park, CA 94080",37.413511,-122.173372,https://img.logo.dev/zohoworkplace.com?token=YOUR-LOGODEV-TOKEN
Apple iWork,"9752 Bryant St, Menlo Park, CA 94025",37.461644,-122.16824,https://img.logo.dev/appleiwork.com?token=YOUR-LOGODEV-TOKEN
LibreOffice,"4841 Page Mill Rd, Fremont, CA 94005",37.54619,-122.029866,https://img.logo.dev/libreoffice.com?token=YOUR-LOGODEV-TOKEN
OnlyOffice,"866 Sand Hill Rd, Sunnyvale, CA 94107",37.365823,-122.006087,https://img.logo.dev/onlyoffice.com?token=YOUR-LOGODEV-TOKEN
WPS Office,"4351 Page Mill Rd, Daly City, CA 94065",37.665632,-122.422992,https://img.logo.dev/wpsoffice.com?token=YOUR-LOGODEV-TOKEN
Dropbox Paper,"5553 Howard St, Sunnyvale, CA 94103",37.401847,-122.015088,https://img.logo.dev/dropboxpaper.com?token=YOUR-LOGODEV-TOKEN
Notion,"7896 Howard St, Daly City, CA 94043",37.752948,-122.447504,https://img.logo.dev/notion.com?token=YOUR-LOGODEV-TOKEN
Obsidian,"2519 Brannan St, Hayward, CA 94402",37.668197,-122.096411,https://img.logo.dev/obsidian.com?token=YOUR-LOGODEV-TOKEN
Roam Research,"4099 Market St, Redwood City, CA 94111",37.460544,-122.214157,https://img.logo.dev/roamresearch.com?token=YOUR-LOGODEV-TOKEN
MongoDB Inc,"1024 Sand Hill Rd, San Francisco, CA 94720",37.727535,-122.420043,https://img.logo.dev/mongodb.com?token=YOUR-LOGODEV-TOKEN
PostgreSQL,"7774 Sand Hill Rd, Daly City, CA 94102",37.682702,-122.432255,https://img.logo.dev/postgresql.com?token=YOUR-LOGODEV-TOKEN
MySQL,"6035 El Camino Real, Foster City, CA 94040",37.535689,-122.225464,https://img.logo.dev/mysql.com?token=YOUR-LOGODEV-TOKEN
MariaDB Corporation,"8975 Folsom St, Sunnyvale, CA 94104",37.400517,-122.05953,https://img.logo.dev/mariadboration.com?token=YOUR-LOGODEV-TOKEN
Redis Labs,"3429 King St, South San Francisco, CA 94025",37.687091,-122.367741,https://img.logo.dev/redislabs.com?token=YOUR-LOGODEV-TOKEN
Elasticsearch,"1775 Harrison St, Foster City, CA 94158",37.577641,-122.23788,https://img.logo.dev/elasticsearch.com?token=YOUR-LOGODEV-TOKEN
Apache Cassandra,"7719 El Camino Real, Redwood City, CA 95113",37.462907,-122.271595,https://img.logo.dev/apachecassandra.com?token=YOUR-LOGODEV-TOKEN
Neo4j Inc,"6930 El Camino Real, Palo Alto, CA 94065",37.455467,-122.165368,https://img.logo.dev/neo4j.com?token=YOUR-LOGODEV-TOKEN
InfluxData,"5320 Market St, Brisbane, CA 94005",37.652109,-122.384797,https://img.logo.dev/influxdata.com?token=YOUR-LOGODEV-TOKEN
TimescaleDB,"3926 Folsom St, San Francisco, CA 94304",37.738411,-122.388866,https://img.logo.dev/timescaledb.com?token=YOUR-LOGODEV-TOKEN
CockroachDB,"3034 Page Mill Rd, Milpitas, CA 94005",37.418242,-121.94792,https://img.logo.dev/cockroachdb.com?token=YOUR-LOGODEV-TOKEN
TiDB,"6787 El Camino Real, Berkeley, CA 94612",37.876399,-122.226909,https://img.logo.dev/tidb.com?token=YOUR-LOGODEV-TOKEN
Cisco Systems,"6032 Sand Hill Rd, Sunnyvale, CA 94612",37.355373,-122.009079,https://img.logo.dev/ciscosystems.com?token=YOUR-LOGODEV-TOKEN
Juniper Networks,"135 Main St, Milpitas, CA 94005",37.392025,-121.881319,https://img.logo.dev/junipernetworks.com?token=YOUR-LOGODEV-TOKEN
Arista Networks,"5829 Howard St, San Mateo, CA 94402",37.540106,-122.30091,https://img.logo.dev/aristanetworks.com?token=YOUR-LOGODEV-TOKEN
Extreme Networks,"470 California St, San Mateo, CA 94402",37.552208,-122.365268,https://img.logo.dev/extremenetworks.com?token=YOUR-LOGODEV-TOKEN
Ubiquiti Inc,"8347 King St, Cupertino, CA 94102",37.332626,-122.002985,https://img.logo.dev/ubiquiti.com?token=YOUR-LOGODEV-TOKEN
Netgear Inc,"9628 Berry St, Oakland, CA 94301",37.804275,-122.281785,https://img.logo.dev/netgear.com?token=YOUR-LOGODEV-TOKEN
TP-Link Technologies,"2508 Townsend St, Oakland, CA 94158",37.82266,-122.261793,https://img.logo.dev/tplink.com?token=YOUR-LOGODEV-TOKEN
D-Link Corporation,"9277 Harrison St, Brisbane, CA 94612",37.67524,-122.400919,https://img.logo.dev/dlinkoration.com?token=YOUR-LOGODEV-TOKEN
Linksys,"5735 Brannan St, San Mateo, CA 95014",37.573409,-122.304756,https://img.logo.dev/linksys.com?token=YOUR-LOGODEV-TOKEN
ASUS Networking,"9646 Mission St, Palo Alto, CA 94065",37.405578,-122.133172,https://img.logo.dev/asusnetworking.com?token=YOUR-LOGODEV-TOKEN
NetApp Inc,"1350 Folsom St, Sunnyvale, CA 94065",37.408898,-122.00921,https://img.logo.dev/netapp.com?token=YOUR-LOGODEV-TOKEN
Pure Storage,"8812 University Ave, San Francisco, CA 95110",37.784626,-122.465888,https://img.logo.dev/purestorage.com?token=YOUR-LOGODEV-TOKEN
Nimble Storage,"2389 Harrison St, Sunnyvale, CA 94102",37.331423,-122.052151,https://img.logo.dev/nimblestorage.com?token=YOUR-LOGODEV-TOKEN
Cohesity Inc,"5480 Middlefield Rd, Berkeley, CA 95054",37.829695,-122.292526,https://img.logo.dev/cohesity.com?token=YOUR-LOGODEV-TOKEN
Rubrik Inc,"5096 Bryant St, Berkeley, CA 94110",37.901504,-122.297861,https://img.logo.dev/rubrik.com?token=YOUR-LOGODEV-TOKEN
Druva Inc,"7259 Bryant St, Redwood City, CA 94720",37.469362,-122.206778,https://img.logo.dev/druva.com?token=YOUR-LOGODEV-TOKEN
Commvault Systems,"7905 California St, Menlo Park, CA 94105",37.465956,-122.224185,https://img.logo.dev/commvaultsystems.com?token=YOUR-LOGODEV-TOKEN
Veeam Software,"4316 Mission St, South San Francisco, CA 94102",37.701521,-122.412119,https://img.logo.dev/veeamsoftware.com?token=YOUR-LOGODEV-TOKEN
Acronis International,"7964 El Camino Real, San Francisco, CA 94720",37.777177,-122.415756,https://img.logo.dev/acronisinternational.com?token=YOUR-LOGODEV-TOKEN
Carbonite Inc,"1324 Harrison St, Mountain View, CA 94301",37.432243,-122.096815,https://img.logo.dev/carbonite.com?token=YOUR-LOGODEV-TOKEN
Backblaze,"5367 Berry St, Berkeley, CA 94102",37.891142,-122.322861,https://img.logo.dev/backblaze.com?token=YOUR-LOGODEV-TOKEN
Palo Alto Networks,"7020 Berry St, Sunnyvale, CA 94301",37.332427,-122.05804,https://img.logo.dev/paloaltonetworks.com?token=YOUR-LOGODEV-TOKEN
Fortinet Inc,"3537 Sand Hill Rd, Redwood City, CA 94010",37.445546,-122.201924,https://img.logo.dev/fortinet.com?token=YOUR-LOGODEV-TOKEN
Check Point Software,"7137 Page Mill Rd, Menlo Park, CA 95113",37.481376,-122.20755,https://img.logo.dev/checkpointsoftware.com?token=YOUR-LOGODEV-TOKEN
FireEye Inc,"218 Folsom St, Oakland, CA 94080",37.75999,-122.285377,https://img.logo.dev/fireeye.com?token=YOUR-LOGODEV-TOKEN
Symantec Corporation,"5924 Berry St, Fremont, CA 94085",37.506843,-121.988947,https://img.logo.dev/symantecoration.com?token=YOUR-LOGODEV-TOKEN
McAfee LLC,"9715 University Ave, Fremont, CA 94301",37.573732,-121.984962,https://img.logo.dev/mcafee.com?token=YOUR-LOGODEV-TOKEN
Trend Micro Inc,"6866 Howard St, Sunnyvale, CA 94103",37.320453,-122.053724,https://img.logo.dev/trendmicro.com?token=YOUR-LOGODEV-TOKEN
Kaspersky Lab,"8606 Page Mill Rd, Cupertino, CA 94104",37.307167,-121.983561,https://img.logo.dev/kasperskylab.com?token=YOUR-LOGODEV-TOKEN
Bitdefender,"8523 Mission St, Palo Alto, CA 94107",37.396722,-122.102299,https://img.logo.dev/bitdefender.com?token=YOUR-LOGODEV-TOKEN
ESET,"6757 Mission St, Foster City, CA 94402",37.600223,-122.313109,https://img.logo.dev/eset.com?token=YOUR-LOGODEV-TOKEN
Avast Software,"3677 Page Mill Rd, Sunnyvale, CA 94110",37.370617,-122.054625,https://img.logo.dev/avastsoftware.com?token=YOUR-LOGODEV-TOKEN
New Relic Inc,"1562 Page Mill Rd, Redwood City, CA 94158",37.483596,-122.219174,https://img.logo.dev/newrelic.com?token=YOUR-LOGODEV-TOKEN
Datadog Inc,"486 Main St, Fremont, CA 94085",37.560766,-121.966761,https://img.logo.dev/datadog.com?token=YOUR-LOGODEV-TOKEN
Dynatrace Inc,"8722 Page Mill Rd, Palo Alto, CA 94025",37.417033,-122.160131,https://img.logo.dev/dynatrace.com?token=YOUR-LOGODEV-TOKEN
AppDynamics,"6570 University Ave, San Jose, CA 94403",37.384262,-121.853673,https://img.logo.dev/appdynamics.com?token=YOUR-LOGODEV-TOKEN
Splunk Inc,"1984 Folsom St, Fremont, CA 94403",37.565324,-121.986999,https://img.logo.dev/splunk.com?token=YOUR-LOGODEV-TOKEN
Sumo Logic,"2746 Harrison St, Palo Alto, CA 94304",37.440724,-122.119449,https://img.logo.dev/sumologic.com?token=YOUR-LOGODEV-TOKEN
LogicMonitor,"3573 Brannan St, San Jose, CA 94107",37.305607,-121.923834,https://img.logo.dev/logicmonitor.com?token=YOUR-LOGODEV-TOKEN
SolarWinds,"6672 El Camino Real, Sunnyvale, CA 94103",37.395262,-122.06573,https://img.logo.dev/solarwinds.com?token=YOUR-LOGODEV-TOKEN
PRTG Network Monitor,"7973 Sand Hill Rd, San Jose, CA 95110",37.353532,-121.929759,https://img.logo.dev/prtgnetworkmonitor.com?token=YOUR-LOGODEV-TOKEN
ManageEngine,"774 Brannan St, Hayward, CA 94301",37.691376,-122.129782,https://img.logo.dev/manageengine.com?token=YOUR-LOGODEV-TOKEN
Zabbix,"1608 University Ave, Daly City, CA 95054",37.699993,-122.484475,https://img.logo.dev/zabbix.com?token=YOUR-LOGODEV-TOKEN
Selenium HQ,"7738 Middlefield Rd, Foster City, CA 94005",37.515856,-122.309082,https://img.logo.dev/seleniumhq.com?token=YOUR-LOGODEV-TOKEN
Cypress.io,"7158 Main St, Berkeley, CA 94025",37.841573,-122.315095,https://img.logo.dev/cypressio.com?token=YOUR-LOGODEV-TOKEN
TestComplete,"8005 Berry St, Hayward, CA 94065",37.6915,-122.037692,https://img.logo.dev/testcomplete.com?token=YOUR-LOGODEV-TOKEN
Ranorex,"2608 King St, San Mateo, CA 94607",37.543857,-122.34794,https://img.logo.dev/ranorex.com?token=YOUR-LOGODEV-TOKEN
Katalon Studio,"2280 Mission St, Fremont, CA 95051",37.587455,-122.021867,https://img.logo.dev/katalonstudio.com?token=YOUR-LOGODEV-TOKEN
Appium,"4464 Folsom St, Hayward, CA 94103",37.651386,-122.076743,https://img.logo.dev/appium.com?token=YOUR-LOGODEV-TOKEN
TestCafe,"1397 Brannan St, Sunnyvale, CA 94063",37.328015,-122.042895,https://img.logo.dev/testcafe.com?token=YOUR-LOGODEV-TOKEN
Playwright,"6565 Page Mill Rd, Brisbane, CA 94086",37.724612,-122.442727,https://img.logo.dev/playwright.com?token=YOUR-LOGODEV-TOKEN
Puppeteer,"1893 Middlefield Rd, San Jose, CA 94612",37.383602,-121.862606,https://img.logo.dev/puppeteer.com?token=YOUR-LOGODEV-TOKEN
WebDriver IO,"3482 Brannan St, Berkeley, CA 95014",37.837941,-122.297815,https://img.logo.dev/webdriverio.com?token=YOUR-LOGODEV-TOKEN
Protractor,"3990 Bryant St, Foster City, CA 94720",37.510732,-122.272631,https://img.logo.dev/protractor.com?token=YOUR-LOGODEV-TOKEN
Jest,"7381 Sand Hill Rd, San Mateo, CA 94104",37.59199,-122.318023,https://img.logo.dev/jest.com?token=YOUR-LOGODEV-TOKEN
Postman Inc,"6735 Howard St, Oakland, CA 94133",37.766499,-122.229221,https://img.logo.dev/postman.com?token=YOUR-LOGODEV-TOKEN
Insomnia,"8793 Middlefield Rd, Foster City, CA 95054",37.582725,-122.256423,https://img.logo.dev/insomnia.com?token=YOUR-LOGODEV-TOKEN
Paw,"5138 University Ave, Burlingame, CA 95014",37.590263,-122.35049,https://img.logo.dev/paw.com?token=YOUR-LOGODEV-TOKEN
HTTPie,"8942 Bryant St, Cupertino, CA 94025",37.280056,-122.031626,https://img.logo.dev/httpie.com?token=YOUR-LOGODEV-TOKEN
cURL,"204 California St, Redwood City, CA 94111",37.467392,-122.258884,https://img.logo.dev/curl.com?token=YOUR-LOGODEV-TOKEN
REST Client,"4737 University Ave, San Jose, CA 94110",37.384225,-121.838389,https://img.logo.dev/restclient.com?token=YOUR-LOGODEV-TOKEN
GraphQL,"2398 Page Mill Rd, Redwood City, CA 95113",37.439236,-122.255757,https://img.logo.dev/graphql.com?token=YOUR-LOGODEV-TOKEN
Apollo GraphQL,"1102 Market St, San Francisco, CA 94133",37.808996,-122.466082,https://img.logo.dev/apollographql.com?token=YOUR-LOGODEV-TOKEN
Hasura Inc,"5309 Page Mill Rd, San Francisco, CA 94102",37.76843,-122.375045,https://img.logo.dev/hasura.com?token=YOUR-LOGODEV-TOKEN
Prisma,"4337 Bryant St, Daly City, CA 94720",37.722287,-122.458188,https://img.logo.dev/prisma.com?token=YOUR-LOGODEV-TOKEN
Strapi,"6348 Sand Hill Rd, Menlo Park, CA 95134",37.488582,-122.211545,https://img.logo.dev/strapi.com?token=YOUR-LOGODEV-TOKEN
Directus,"8702 University Ave, South San Francisco, CA 94040",37.685548,-122.382994,https://img.logo.dev/directus.com?token=YOUR-LOGODEV-TOKEN
Sanity,"2617 California St, Redwood City, CA 94065",37.446801,-122.284069,https://img.logo.dev/sanity.com?token=YOUR-LOGODEV-TOKEN
Contentful,"2535 King St, Hayward, CA 94041",37.660123,-122.055222,https://img.logo.dev/contentful.com?token=YOUR-LOGODEV-TOKEN
Forestry,"3585 Harrison St, Santa Clara, CA 94107",37.352379,-121.91402,https://img.logo.dev/forestry.com?token=YOUR-LOGODEV-TOKEN
Y Combinator Startup 1,"9467 Sand Hill Rd, Mountain View, CA 94043",37.384835,-122.114555,https://img.logo.dev/ycombinatorstartup1.com?token=YOUR-LOGODEV-TOKEN
Y Combinator Startup 2,"717 Middlefield Rd, Daly City, CA 94025",37.685275,-122.478096,https://img.logo.dev/ycombinatorstartup2.com?token=YOUR-LOGODEV-TOKEN
Techstars Startup 1,"6870 Berry St, San Jose, CA 94089",37.358895,-121.851902,https://img.logo.dev/techstarsstartup1.com?token=YOUR-LOGODEV-TOKEN
Techstars Startup 2,"1952 King St, Daly City, CA 94402",37.753005,-122.501572,https://img.logo.dev/techstarsstartup2.com?token=YOUR-LOGODEV-TOKEN
Plug and Play Startup 1,"667 University Ave, Redwood City, CA 94402",37.532924,-122.272736,https://img.logo.dev/plugandplaystartup1.com?token=YOUR-LOGODEV-TOKEN
Plug and Play Startup 2,"6341 Page Mill Rd, San Francisco, CA 95134",37.738961,-122.441471,https://img.logo.dev/plugandplaystartup2.com?token=YOUR-LOGODEV-TOKEN
RGA Accelerator Startup 1,"4530 Mission St, Menlo Park, CA 94043",37.478581,-122.151109,https://img.logo.dev/rgaacceleratorstartup1.com?token=YOUR-LOGODEV-TOKEN
RGA Accelerator Startup 2,"9610 Page Mill Rd, Oakland, CA 94158",37.84065,-122.293905,https://img.logo.dev/rgaacceleratorstartup2.com?token=YOUR-LOGODEV-TOKEN
AngelPad Startup 1,"170 Market St, Hayward, CA 94025",37.651718,-122.101518,https://img.logo.dev/angelpadstartup1.com?token=YOUR-LOGODEV-TOKEN
AngelPad Startup 2,"7015 Middlefield Rd, San Mateo, CA 94080",37.603462,-122.35508,https://img.logo.dev/angelpadstartup2.com?token=YOUR-LOGODEV-TOKEN
Founders Den Startup 1,"185 University Ave, Hayward, CA 94040",37.632537,-122.095768,https://img.logo.dev/foundersdenstartup1.com?token=YOUR-LOGODEV-TOKEN
Intel Corporation,"788 Page Mill Rd, Menlo Park, CA 94612",37.452666,-122.150434,https://img.logo.dev/inteloration.com?token=YOUR-LOGODEV-TOKEN
AMD Inc,"6913 Middlefield Rd, Brisbane, CA 95113",37.635936,-122.369304,https://img.logo.dev/amd.com?token=YOUR-LOGODEV-TOKEN
NVIDIA Corporation,"1481 Berry St, Sunnyvale, CA 94089",37.379605,-122.073127,https://img.logo.dev/nvidiaoration.com?token=YOUR-LOGODEV-TOKEN
Qualcomm Inc,"2619 Mission St, Milpitas, CA 94089",37.480015,-121.912975,https://img.logo.dev/qualcomm.com?token=YOUR-LOGODEV-TOKEN
Broadcom Inc,"7157 Main St, Milpitas, CA 94403",37.393637,-121.890555,https://img.logo.dev/broadcom.com?token=YOUR-LOGODEV-TOKEN
Marvell Technology,"4099 Middlefield Rd, Menlo Park, CA 94158",37.480433,-122.205473,https://img.logo.dev/marvell.com?token=YOUR-LOGODEV-TOKEN
Micron Technology,"253 University Ave, Milpitas, CA 95110",37.416573,-121.939874,https://img.logo.dev/micron.com?token=YOUR-LOGODEV-TOKEN
Western Digital,"6912 Bryant St, Foster City, CA 94158",37.525427,-122.28232,https://img.logo.dev/westerndigital.com?token=YOUR-LOGODEV-TOKEN
Seagate Technology,"7699 Howard St, Santa Clara, CA 94005",37.364702,-121.927787,https://img.logo.dev/seagate.com?token=YOUR-LOGODEV-TOKEN
SanDisk Corporation,"652 California St, Redwood City, CA 94107",37.530317,-122.277403,https://img.logo.dev/sandiskoration.com?token=YOUR-LOGODEV-TOKEN
Kingston Technology,"961 Townsend St, Burlingame, CA 94111",37.551927,-122.408051,https://img.logo.dev/kingston.com?token=YOUR-LOGODEV-TOKEN
Corsair Gaming,"6341 Howard St, Brisbane, CA 94041",37.657237,-122.382687,https://img.logo.dev/corsairgaming.com?token=YOUR-LOGODEV-TOKEN
ASUS Computer,"9528 Main St, Palo Alto, CA 94010",37.484595,-122.093323,https://img.logo.dev/asuscomputer.com?token=YOUR-LOGODEV-TOKEN
Particle Inc,"4171 California St, San Mateo, CA 94404",37.55772,-122.319895,https://img.logo.dev/particle.com?token=YOUR-LOGODEV-TOKEN
Arduino LLC,"6197 Mission St, Burlingame, CA 94607",37.548367,-122.356885,https://img.logo.dev/arduino.com?token=YOUR-LOGODEV-TOKEN
Raspberry Pi Foundation,"9834 Sand Hill Rd, Palo Alto, CA 94041",37.456355,-122.15231,https://img.logo.dev/raspberrypifoundation.com?token=YOUR-LOGODEV-TOKEN
Adafruit Industries,"121 Bryant St, Burlingame, CA 94089",37.553873,-122.374446,https://img.logo.dev/adafruitindustries.com?token=YOUR-LOGODEV-TOKEN
SparkFun Electronics,"1862 Brannan St, Oakland, CA 94103",37.837373,-122.277145,https://img.logo.dev/sparkfunelectronics.com?token=YOUR-LOGODEV-TOKEN
Seeed Studio,"3813 Berry St, Burlingame, CA 94010",37.539429,-122.324999,https://img.logo.dev/seeedstudio.com?token=YOUR-LOGODEV-TOKEN
M5Stack,"1979 University Ave, Foster City, CA 94402",37.551857,-122.297876,https://img.logo.dev/m5stack.com?token=YOUR-LOGODEV-TOKEN
ESP32,"1473 Bryant St, Burlingame, CA 95113",37.539939,-122.388309,https://img.logo.dev/esp32.com?token=YOUR-LOGODEV-TOKEN
Nordic Semiconductor,"4975 El Camino Real, South San Francisco, CA 94107",37.675587,-122.361652,https://img.logo.dev/nordicsemiconductor.com?token=YOUR-LOGODEV-TOKEN
Texas Instruments,"5248 Bryant St, Sunnyvale, CA 95113",37.378207,-122.038838,https://img.logo.dev/texasinstruments.com?token=YOUR-LOGODEV-TOKEN
Meta Quest,"2878 Middlefield Rd, South San Francisco, CA 94110",37.694175,-122.370922,https://img.logo.dev/metaquest.com?token=YOUR-LOGODEV-TOKEN
HTC Vive,"830 Berry St, Hayward, CA 95113",37.640922,-122.10571,https://img.logo.dev/htcvive.com?token=YOUR-LOGODEV-TOKEN
Valve Index,"8630 Bryant St, Mountain View, CA 94720",37.408833,-122.071036,https://img.logo.dev/valveindex.com?token=YOUR-LOGODEV-TOKEN
PlayStation VR,"7231 Folsom St, Brisbane, CA 94133",37.723194,-122.389948,https://img.logo.dev/playstationvr.com?token=YOUR-LOGODEV-TOKEN
Oculus Rift,"5123 Page Mill Rd, Burlingame, CA 94103",37.600195,-122.416558,https://img.logo.dev/oculusrift.com?token=YOUR-LOGODEV-TOKEN
Magic Leap,"1045 Bryant St, Brisbane, CA 94403",37.720671,-122.429112,https://img.logo.dev/magicleap.com?token=YOUR-LOGODEV-TOKEN
Microsoft HoloLens,"2409 Mission St, Santa Clara, CA 94720",37.32905,-121.989898,https://img.logo.dev/microsofthololens.com?token=YOUR-LOGODEV-TOKEN
Apple Vision,"2332 Folsom St, Redwood City, CA 94103",37.474449,-122.230178,https://img.logo.dev/applevision.com?token=YOUR-LOGODEV-TOKEN
Google Glass,"9598 Berry St, San Francisco, CA 94010",37.750946,-122.446447,https://img.logo.dev/googleglass.com?token=YOUR-LOGODEV-TOKEN
Snapchat Spectacles,"9053 University Ave, Sunnyvale, CA 94025",37.387528,-122.053809,https://img.logo.dev/snapchatspectacles.com?token=YOUR-LOGODEV-TOKEN
Varjo,"4813 Page Mill Rd, Redwood City, CA 94403",37.521494,-122.193445,https://img.logo.dev/varjo.com?token=YOUR-LOGODEV-TOKEN
Coinbase Inc,"492 Townsend St, Burlingame, CA 94043",37.626736,-122.389228,https://img.logo.dev/coinbase.com?token=YOUR-LOGODEV-TOKEN
Kraken Exchange,"4953 Howard St, Brisbane, CA 94403",37.653757,-122.44779,https://img.logo.dev/krakenexchange.com?token=YOUR-LOGODEV-TOKEN
Binance US,"9421 Main St, San Francisco, CA 94103",37.785255,-122.424772,https://img.logo.dev/binanceus.com?token=YOUR-LOGODEV-TOKEN
Gemini Trust,"1560 Main St, Redwood City, CA 94402",37.529891,-122.275183,https://img.logo.dev/geminitrust.com?token=YOUR-LOGODEV-TOKEN
Bitfinex,"6357 Bryant St, San Jose, CA 94102",37.352734,-121.847763,https://img.logo.dev/bitfinex.com?token=YOUR-LOGODEV-TOKEN
Bitstamp,"4245 El Camino Real, Burlingame, CA 94102",37.588865,-122.369214,https://img.logo.dev/bitstamp.com?token=YOUR-LOGODEV-TOKEN
KuCoin,"9453 Page Mill Rd, Berkeley, CA 95113",37.853542,-122.226661,https://img.logo.dev/kucoin.com?token=YOUR-LOGODEV-TOKEN
Huobi Global,"6773 Main St, Daly City, CA 94063",37.672811,-122.478134,https://img.logo.dev/huobiglobal.com?token=YOUR-LOGODEV-TOKEN
FTX Exchange,"1606 King St, Sunnyvale, CA 94025",37.343396,-122.055573,https://img.logo.dev/ftxexchange.com?token=YOUR-LOGODEV-TOKEN
Crypto.com,"8627 Brannan St, Milpitas, CA 94065",37.479974,-121.874363,https://img.logo.dev/cryptocom.com?token=YOUR-LOGODEV-TOKEN
BlockFi Inc,"3745 University Ave, Menlo Park, CA 94085",37.476322,-122.196961,https://img.logo.dev/blockfi.com?token=YOUR-LOGODEV-TOKEN
Celsius Network,"173 Sand Hill Rd, Menlo Park, CA 94041",37.488925,-122.14322,https://img.logo.dev/celsiusnetwork.com?token=YOUR-LOGODEV-TOKEN
Tesla Energy,"6079 Main St, Sunnyvale, CA 94720",37.416901,-122.031337,https://img.logo.dev/teslaenergy.com?token=YOUR-LOGODEV-TOKEN
SolarCity,"1891 Main St, Brisbane, CA 95014",37.717559,-122.429367,https://img.logo.dev/solarcity.com?token=YOUR-LOGODEV-TOKEN
Sunrun Inc,"6176 Berry St, Palo Alto, CA 94010",37.394714,-122.163952,https://img.logo.dev/sunrun.com?token=YOUR-LOGODEV-TOKEN
Vivint Solar,"1444 Sand Hill Rd, San Francisco, CA 94040",37.779916,-122.390896,https://img.logo.dev/vivintsolar.com?token=YOUR-LOGODEV-TOKEN
SunPower Corporation,"5130 Main St, Foster City, CA 94086",37.508795,-122.293374,https://img.logo.dev/sunpoweroration.com?token=YOUR-LOGODEV-TOKEN
First Solar Inc,"9014 King St, Foster City, CA 94301",37.517073,-122.319021,https://img.logo.dev/firstsolar.com?token=YOUR-LOGODEV-TOKEN
Enphase Energy,"3244 Market St, Daly City, CA 94065",37.736271,-122.497882,https://img.logo.dev/enphaseenergy.com?token=YOUR-LOGODEV-TOKEN
SolarEdge Technologies,"5061 California St, San Mateo, CA 95051",37.543418,-122.364606,https://img.logo.dev/solaredge.com?token=YOUR-LOGODEV-TOKEN
Bloom Energy,"7736 Main St, Milpitas, CA 94304",37.457977,-121.889482,https://img.logo.dev/bloomenergy.com?token=YOUR-LOGODEV-TOKEN
Waymo LLC,"5327 King St, Sunnyvale, CA 94111",37.416891,-121.987522,https://img.logo.dev/waymo.com?token=YOUR-LOGODEV-TOKEN
Cruise Automation,"7495 Howard St, Mountain View, CA 94103",37.355067,-122.127255,https://img.logo.dev/cruiseautomation.com?token=YOUR-LOGODEV-TOKEN
Aurora Innovation,"5021 Middlefield Rd, Foster City, CA 94612",37.524952,-122.270963,https://img.logo.dev/aurorainnovation.com?token=YOUR-LOGODEV-TOKEN
Argo AI,"3094 Page Mill Rd, South San Francisco, CA 94612",37.655939,-122.440878,https://img.logo.dev/argoai.com?token=YOUR-LOGODEV-TOKEN
Zoox Inc,"1435 Howard St, Brisbane, CA 95134",37.632681,-122.360888,https://img.logo.dev/zoox.com?token=YOUR-LOGODEV-TOKEN
Nuro Inc,"9956 El Camino Real, Berkeley, CA 94133",37.860006,-122.2296,https://img.logo.dev/nuro.com?token=YOUR-LOGODEV-TOKEN
TuSimple Holdings,"6770 Howard St, Mountain View, CA 94086",37.427048,-122.044903,https://img.logo.dev/tusimpleholdings.com?token=YOUR-LOGODEV-TOKEN
Plus.ai,"8920 Brannan St, Mountain View, CA 94720",37.431538,-122.054387,https://img.logo.dev/plusai.com?token=YOUR-LOGODEV-TOKEN
Embark Trucks,"6884 Townsend St, Menlo Park, CA 94403",37.427789,-122.159163,https://img.logo.dev/embarktrucks.com?token=YOUR-LOGODEV-TOKEN
Kodiak Robotics,"6846 Folsom St, Oakland, CA 94005",37.846064,-122.247379,https://img.logo.dev/kodiakrobotics.com?token=YOUR-LOGODEV-TOKEN
Ghost Locomotion,"6800 California St, San Jose, CA 94080",37.382371,-121.917148,https://img.logo.dev/ghostlocomotion.com?token=YOUR-LOGODEV-TOKEN
DoorDash Inc,"3261 Page Mill Rd, Palo Alto, CA 94025",37.453397,-122.117065,https://img.logo.dev/doordash.com?token=YOUR-LOGODEV-TOKEN
Uber Eats,"6290 Folsom St, Hayward, CA 94086",37.713388,-122.121965,https://img.logo.dev/ubereats.com?token=YOUR-LOGODEV-TOKEN
Grubhub Inc,"8973 Page Mill Rd, San Francisco, CA 95134",37.726535,-122.387154,https://img.logo.dev/grubhub.com?token=YOUR-LOGODEV-TOKEN
Postmates Inc,"1201 Page Mill Rd, Redwood City, CA 94304",37.460891,-122.256866,https://img.logo.dev/postmates.com?token=YOUR-LOGODEV-TOKEN
Instacart Inc,"1153 Mission St, Milpitas, CA 94607",37.456338,-121.908235,https://img.logo.dev/instacart.com?token=YOUR-LOGODEV-TOKEN
Gopuff,"477 Folsom St, Cupertino, CA 94025",37.306561,-122.017105,https://img.logo.dev/gopuff.com?token=YOUR-LOGODEV-TOKEN
Blue Apron Holdings,"6599 Townsend St, Milpitas, CA 94086",37.393564,-121.89839,https://img.logo.dev/blueapronholdings.com?token=YOUR-LOGODEV-TOKEN
HelloFresh SE,"2707 Page Mill Rd, Daly City, CA 95054",37.657312,-122.43945,https://img.logo.dev/hellofreshse.com?token=YOUR-LOGODEV-TOKEN
Meal Kit Delivery,"5041 University Ave, Cupertino, CA 95051",37.370165,-122.065749,https://img.logo.dev/mealkitdelivery.com?token=YOUR-LOGODEV-TOKEN
Purple Carrot,"5693 Brannan St, San Mateo, CA 94110",37.587776,-122.292163,https://img.logo.dev/purplecarrot.com?token=YOUR-LOGODEV-TOKEN
Sun Basket,"5507 Brannan St, Sunnyvale, CA 94104",37.323449,-122.054035,https://img.logo.dev/sunbasket.com?token=YOUR-LOGODEV-TOKEN
Zillow Group,"2264 Bryant St, Cupertino, CA 94402",37.336706,-122.034663,https://img.logo.dev/zillowgroup.com?token=YOUR-LOGODEV-TOKEN
Redfin Corporation,"3008 University Ave, Palo Alto, CA 94403",37.445595,-122.135993,https://img.logo.dev/redforporation.com?token=YOUR-LOGODEV-TOKEN
Compass Inc,"7086 Page Mill Rd, Berkeley, CA 94085",37.919357,-122.261708,https://img.logo.dev/compass.com?token=YOUR-LOGODEV-TOKEN
Opendoor Technologies,"5229 Berry St, San Francisco, CA 94104",37.758305,-122.414867,https://img.logo.dev/opendoor.com?token=YOUR-LOGODEV-TOKEN
Offerpad,"6803 University Ave, San Jose, CA 94105",37.301816,-121.90058,https://img.logo.dev/offerpad.com?token=YOUR-LOGODEV-TOKEN
RedfinNow,"9192 Sand Hill Rd, Burlingame, CA 94041",37.612185,-122.329884,https://img.logo.dev/redfinnow.com?token=YOUR-LOGODEV-TOKEN
Zillow Instant Offers,"7490 Mission St, Palo Alto, CA 95014",37.44483,-122.097773,https://img.logo.dev/zillowinstantoffers.com?token=YOUR-LOGODEV-TOKEN
OpenDoor Labs,"4244 Sand Hill Rd, San Francisco, CA 94612",37.774045,-122.422552,https://img.logo.dev/opendoorlabs.com?token=YOUR-LOGODEV-TOKEN
Knock Inc,"9621 Townsend St, San Jose, CA 94105",37.355257,-121.905947,https://img.logo.dev/knock.com?token=YOUR-LOGODEV-TOKEN
Flyhomes Inc,"2647 Bryant St, South San Francisco, CA 94306",37.621369,-122.408025,https://img.logo.dev/flyhomes.com?token=YOUR-LOGODEV-TOKEN
Airbnb Inc,"2892 Page Mill Rd, Hayward, CA 95051",37.642704,-122.075147,https://img.logo.dev/airbnb.com?token=YOUR-LOGODEV-TOKEN
VRBO,"794 Bryant St, Milpitas, CA 94306",37.382809,-121.895122,https://img.logo.dev/vrbo.com?token=YOUR-LOGODEV-TOKEN
HomeAway,"7711 Townsend St, Mountain View, CA 94025",37.380778,-122.121558,https://img.logo.dev/homeaway.com?token=YOUR-LOGODEV-TOKEN
Booking.com,"9022 Howard St, South San Francisco, CA 94133",37.660912,-122.454294,https://img.logo.dev/bookingcom.com?token=YOUR-LOGODEV-TOKEN
Expedia Group,"8699 Berry St, Daly City, CA 94158",37.695182,-122.500767,https://img.logo.dev/expediagroup.com?token=YOUR-LOGODEV-TOKEN
Priceline,"1051 Howard St, Redwood City, CA 94107",37.460068,-122.189033,https://img.logo.dev/priceline.com?token=YOUR-LOGODEV-TOKEN
Kayak,"4830 University Ave, Fremont, CA 94105",37.55225,-122.008569,https://img.logo.dev/kayak.com?token=YOUR-LOGODEV-TOKEN
Skyscanner,"2156 Market St, Hayward, CA 94404",37.634012,-122.082263,https://img.logo.dev/skyscanner.com?token=YOUR-LOGODEV-TOKEN
TripAdvisor,"7337 El Camino Real, Burlingame, CA 94080",37.552882,-122.383314,https://img.logo.dev/tripadvisor.com?token=YOUR-LOGODEV-TOKEN
Tripadvisor Rentals,"2792 California St, Milpitas, CA 94005",37.405283,-121.890936,https://img.logo.dev/tripadvisorrentals.com?token=YOUR-LOGODEV-TOKEN
FlightNetwork,"1749 Mission St, Sunnyvale, CA 94085",37.394978,-121.994586,https://img.logo.dev/flightnetwork.com?token=YOUR-LOGODEV-TOKEN
Teladoc Health,"3999 Berry St, South San Francisco, CA 94133",37.681613,-122.448333,https://img.logo.dev/teladochealth.com?token=YOUR-LOGODEV-TOKEN
Amwell Inc,"2321 Market St, Palo Alto, CA 94107",37.397603,-122.166008,https://img.logo.dev/amwell.com?token=YOUR-LOGODEV-TOKEN
MDLive,"8322 Townsend St, Menlo Park, CA 94102",37.452128,-122.158485,https://img.logo.dev/mdlive.com?token=YOUR-LOGODEV-TOKEN
Doctor on Demand,"4758 Main St, Santa Clara, CA 94010",37.348312,-121.966651,https://img.logo.dev/doctorondemand.com?token=YOUR-LOGODEV-TOKEN
PlushCare,"4289 Berry St, Fremont, CA 94612",37.539784,-122.001499,https://img.logo.dev/plushcare.com?token=YOUR-LOGODEV-TOKEN
K Health,"1825 University Ave, San Francisco, CA 94133",37.75078,-122.418777,https://img.logo.dev/khealth.com?token=YOUR-LOGODEV-TOKEN
Babylon Health,"8551 Bryant St, Palo Alto, CA 94102",37.483411,-122.115387,https://img.logo.dev/babylonhealth.com?token=YOUR-LOGODEV-TOKEN
Ada Health,"2086 Folsom St, Fremont, CA 94086",37.572713,-121.966129,https://img.logo.dev/adahealth.com?token=YOUR-LOGODEV-TOKEN
Buoy Health,"7908 Mission St, Santa Clara, CA 94041",37.392266,-121.95073,https://img.logo.dev/buoyhealth.com?token=YOUR-LOGODEV-TOKEN
Symptomate,"1153 Harrison St, San Jose, CA 94086",37.3714,-121.865721,https://img.logo.dev/symptomate.com?token=YOUR-LOGODEV-TOKEN
Isabel Healthcare,"5875 Market St, South San Francisco, CA 94085",37.611616,-122.36394,https://img.logo.dev/isabelhealthcare.com?token=YOUR-LOGODEV-TOKEN
Coursera Inc,"7126 Folsom St, South San Francisco, CA 94065",37.645988,-122.408204,https://img.logo.dev/coursera.com?token=YOUR-LOGODEV-TOKEN
Udacity Inc,"9226 Mission St, Menlo Park, CA 94025",37.436478,-122.183628,https://img.logo.dev/udacity.com?token=YOUR-LOGODEV-TOKEN
edX Inc,"7017 Harrison St, Foster City, CA 95134",37.519791,-122.223979,https://img.logo.dev/edx.com?token=YOUR-LOGODEV-TOKEN
Khan Academy,"8617 Berry St, Foster City, CA 94040",37.600819,-122.226005,https://img.logo.dev/khanacademy.com?token=YOUR-LOGODEV-TOKEN
Skillshare Inc,"1483 Mission St, San Mateo, CA 94720",37.571149,-122.344307,https://img.logo.dev/skillshare.com?token=YOUR-LOGODEV-TOKEN
MasterClass,"1681 El Camino Real, Mountain View, CA 95113",37.404046,-122.096412,https://img.logo.dev/masterclass.com?token=YOUR-LOGODEV-TOKEN
Pluralsight Inc,"275 Bryant St, Brisbane, CA 94104",37.653988,-122.379998,https://img.logo.dev/pluralsight.com?token=YOUR-LOGODEV-TOKEN
LinkedIn Learning,"5820 El Camino Real, Foster City, CA 94103",37.510757,-122.296884,https://img.logo.dev/linkedinlearning.com?token=YOUR-LOGODEV-TOKEN
Udemy Inc,"268 Market St, Cupertino, CA 95051",37.294829,-122.02635,https://img.logo.dev/udemy.com?token=YOUR-LOGODEV-TOKEN
Codecademy,"4892 Brannan St, Fremont, CA 94607",37.53877,-121.960174,https://img.logo.dev/codecademy.com?token=YOUR-LOGODEV-TOKEN
freeCodeCamp,"839 University Ave, Fremont, CA 94025",37.502336,-121.97659,https://img.logo.dev/freecodecamp.com?token=YOUR-LOGODEV-TOKEN
LegalZoom Inc,"9697 El Camino Real, Oakland, CA 94086",37.798625,-122.254748,https://img.logo.dev/legalzoom.com?token=YOUR-LOGODEV-TOKEN
Rocket Lawyer,"1555 Harrison St, Brisbane, CA 94086",37.639967,-122.393873,https://img.logo.dev/rocketlawyer.com?token=YOUR-LOGODEV-TOKEN
LawDepot,"231 King St, Oakland, CA 94402",37.779397,-122.258266,https://img.logo.dev/lawdepot.com?token=YOUR-LOGODEV-TOKEN
Nolo,"5971 Townsend St, Fremont, CA 94158",37.568249,-121.984118,https://img.logo.dev/nolo.com?token=YOUR-LOGODEV-TOKEN
Avvo Inc,"347 California St, Mountain View, CA 94304",37.343337,-122.102115,https://img.logo.dev/avvo.com?token=YOUR-LOGODEV-TOKEN
Martindale-Hubbell,"3422 Mission St, San Mateo, CA 94720",37.604102,-122.328272,https://img.logo.dev/martindalehubbell.com?token=YOUR-LOGODEV-TOKEN
FindLaw,"6299 Brannan St, Berkeley, CA 94306",37.86608,-122.288716,https://img.logo.dev/findlaw.com?token=YOUR-LOGODEV-TOKEN
Justia Inc,"4309 Sand Hill Rd, Sunnyvale, CA 94403",37.372001,-122.03982,https://img.logo.dev/justia.com?token=YOUR-LOGODEV-TOKEN
Legal Templates,"9412 Brannan St, Burlingame, CA 94102",37.564977,-122.370644,https://img.logo.dev/legaltemplates.com?token=YOUR-LOGODEV-TOKEN
LegalNature,"1638 California St, San Mateo, CA 94043",37.526246,-122.336333,https://img.logo.dev/legalnature.com?token=YOUR-LOGODEV-TOKEN
LawTrades,"7963 Folsom St, Santa Clara, CA 94089",37.372536,-121.941023,https://img.logo.dev/lawtrades.com?token=YOUR-LOGODEV-TOKEN
Bay Area Startup 1,"4821 Brannan St, San Jose, CA 94104",37.34177,-121.860882,https://img.logo.dev/bayareastartup1.com?token=YOUR-LOGODEV-TOKEN
Bay Area Startup 2,"2763 Middlefield Rd, Sunnyvale, CA 94103",37.35237,-122.02308,https://img.logo.dev/bayareastartup2.com?token=YOUR-LOGODEV-TOKEN
Bay Area Startup 3,"7865 Brannan St, Daly City, CA 94612",37.675877,-122.443505,https://img.logo.dev/bayareastartup3.com?token=YOUR-LOGODEV-TOKEN
Bay Area Startup 4,"9896 Brannan St, San Francisco, CA 94065",37.784465,-122.424638,https://img.logo.dev/bayareastartup4.com?token=YOUR-LOGODEV-TOKEN
Bay Area Startup 5,"338 Berry St, Daly City, CA 94103",37.735997,-122.460681,https://img.logo.dev/bayareastartup5.com?token=YOUR-LOGODEV-TOKEN
Bay Area Startup 6,"6170 Berry St, Daly City, CA 94103",37.721113,-122.416096,https://img.logo.dev/bayareastartup6.com?token=YOUR-LOGODEV-TOKEN
Bay Area Startup 7,"1915 Main St, Hayward, CA 94085",37.625153,-122.064642,https://img.logo.dev/bayareastartup7.com?token=YOUR-LOGODEV-TOKEN
Bay Area Startup 8,"9839 King St, Oakland, CA 94089",37.823498,-122.245176,https://img.logo.dev/bayareastartup8.com?token=YOUR-LOGODEV-TOKEN
Bay Area Startup 9,"7652 Main St, Fremont, CA 94103",37.595215,-122.001761,https://img.logo.dev/bayareastartup9.com?token=YOUR-LOGODEV-TOKEN
Bay Area Startup 10,"8221 El Camino Real, Foster City, CA 94041",37.531282,-122.278079,https://img.logo.dev/bayareastartup10.com?token=YOUR-LOGODEV-TOKEN
Bay Area Startup 11,"8008 Townsend St, San Jose, CA 94306",37.343915,-121.888349,https://img.logo.dev/bayareastartup11.com?token=YOUR-LOGODEV-TOKEN
Bay Area Startup 12,"1895 Bryant St, Cupertino, CA 95110",37.356572,-122.052816,https://img.logo.dev/bayareastartup12.com?token=YOUR-LOGODEV-TOKEN
Bay Area Startup 13,"1984 Brannan St, Sunnyvale, CA 94010",37.380203,-122.082965,https://img.logo.dev/bayareastartup13.com?token=YOUR-LOGODEV-TOKEN
Bay Area Startup 14,"5891 Howard St, San Francisco, CA 94404",37.758998,-122.376372,https://img.logo.dev/bayareastartup14.com?token=YOUR-LOGODEV-TOKEN
Bay Area Startup 15,"1996 Main St, Foster City, CA 94025",37.525395,-122.247186,https://img.logo.dev/bayareastartup15.com?token=YOUR-LOGODEV-TOKEN
Bay Area Startup 16,"7509 Berry St, San Jose, CA 94089",37.370473,-121.918814,https://img.logo.dev/bayareastartup16.com?token=YOUR-LOGODEV-TOKEN
Bay Area Startup 17,"3369 Middlefield Rd, San Jose, CA 94720",37.307711,-121.907384,https://img.logo.dev/bayareastartup17.com?token=YOUR-LOGODEV-TOKEN
Bay Area Startup 18,"6118 Sand Hill Rd, Redwood City, CA 95014",37.442643,-122.236339,https://img.logo.dev/bayareastartup18.com?token=YOUR-LOGODEV-TOKEN
Bay Area Startup 19,"5688 Middlefield Rd, Burlingame, CA 94105",37.623021,-122.361576,https://img.logo.dev/bayareastartup19.com?token=YOUR-LOGODEV-TOKEN
Bay Area Startup 20,"4730 Middlefield Rd, Mountain View, CA 94043",37.434427,-122.06699,https://img.logo.dev/bayareastartup20.com?token=YOUR-LOGODEV-TOKEN
Bay Area Startup 21,"2942 Bryant St, Sunnyvale, CA 94080",37.36109,-122.012635,https://img.logo.dev/bayareastartup21.com?token=YOUR-LOGODEV-TOKEN
Bay Area Startup 22,"4539 Main St, Palo Alto, CA 94720",37.44533,-122.150337,https://img.logo.dev/bayareastartup22.com?token=YOUR-LOGODEV-TOKEN
Bay Area Startup 23,"3081 Market St, Milpitas, CA 94158",37.418721,-121.909608,https://img.logo.dev/bayareastartup23.com?token=YOUR-LOGODEV-TOKEN
Bay Area Startup 24,"8649 Folsom St, San Francisco, CA 94402",37.758375,-122.430492,https://img.logo.dev/bayareastartup24.com?token=YOUR-LOGODEV-TOKEN
Bay Area Startup 25,"8435 Howard St, Menlo Park, CA 94111",37.426243,-122.165968,https://img.logo.dev/bayareastartup25.com?token=YOUR-LOGODEV-TOKEN
Bay Area Startup 26,"8697 Harrison St, Sunnyvale, CA 94104",37.355603,-122.022566,https://img.logo.dev/bayareastartup26.com?token=YOUR-LOGODEV-TOKEN
Bay Area Startup 27,"3316 King St, Menlo Park, CA 94301",37.414373,-122.187175,https://img.logo.dev/bayareastartup27.com?token=YOUR-LOGODEV-TOKEN
Bay Area Startup 28,"2848 Berry St, Menlo Park, CA 95014",37.487381,-122.164184,https://img.logo.dev/bayareastartup28.com?token=YOUR-LOGODEV-TOKEN
Bay Area Startup 29,"966 Middlefield Rd, South San Francisco, CA 94103",37.617107,-122.386097,https://img.logo.dev/bayareastartup29.com?token=YOUR-LOGODEV-TOKEN
Bay Area Startup 30,"9594 Bryant St, South San Francisco, CA 94065",37.694762,-122.433308,https://img.logo.dev/bayareastartup30.com?token=YOUR-LOGODEV-TOKEN
Bay Area Startup 31,"4856 California St, Fremont, CA 94111",37.592092,-122.017106,https://img.logo.dev/bayareastartup31.com?token=YOUR-LOGODEV-TOKEN
Bay Area Startup 32,"3660 Market St, Berkeley, CA 95134",37.838741,-122.232797,https://img.logo.dev/bayareastartup32.com?token=YOUR-LOGODEV-TOKEN
Bay Area Startup 33,"6369 Brannan St, Brisbane, CA 94402",37.70013,-122.392803,https://img.logo.dev/bayareastartup33.com?token=YOUR-LOGODEV-TOKEN
Bay Area Startup 34,"9603 King St, Fremont, CA 94102",37.588661,-121.989027,https://img.logo.dev/bayareastartup34.com?token=YOUR-LOGODEV-TOKEN
Bay Area Startup 35,"5477 Page Mill Rd, Oakland, CA 94301",37.797379,-122.235173,https://img.logo.dev/bayareastartup35.com?token=YOUR-LOGODEV-TOKEN
Bay Area Startup 36,"5382 Bryant St, South San Francisco, CA 94105",37.658169,-122.367387,https://img.logo.dev/bayareastartup36.com?token=YOUR-LOGODEV-TOKEN
Bay Area Startup 37,"6698 University Ave, Cupertino, CA 95054",37.310845,-122.069133,https://img.logo.dev/bayareastartup37.com?token=YOUR-LOGODEV-TOKEN
Bay Area Startup 38,"463 Folsom St, Menlo Park, CA 94720",37.403388,-122.138498,https://img.logo.dev/bayareastartup38.com?token=YOUR-LOGODEV-TOKEN
Bay Area Startup 39,"2494 Bryant St, Santa Clara, CA 94107",37.355774,-121.977824,https://img.logo.dev/bayareastartup39.com?token=YOUR-LOGODEV-TOKEN
Bay Area Startup 40,"1260 Folsom St, Santa Clara, CA 94107",37.379458,-121.951391,https://img.logo.dev/bayareastartup40.com?token=YOUR-LOGODEV-TOKEN
Bay Area Startup 41,"3948 Folsom St, Berkeley, CA 94607",37.909266,-122.306657,https://img.logo.dev/bayareastartup41.com?token=YOUR-LOGODEV-TOKEN
Bay Area Startup 42,"7053 Sand Hill Rd, Redwood City, CA 95110",37.481639,-122.266441,https://img.logo.dev/bayareastartup42.com?token=YOUR-LOGODEV-TOKEN
Bay Area Startup 43,"4277 Bryant St, Menlo Park, CA 94080",37.434946,-122.222335,https://img.logo.dev/bayareastartup43.com?token=YOUR-LOGODEV-TOKEN
Bay Area Startup 44,"9064 King St, Redwood City, CA 94040",37.476954,-122.220717,https://img.logo.dev/bayareastartup44.com?token=YOUR-LOGODEV-TOKEN
Bay Area Startup 45,"5574 Brannan St, Daly City, CA 95113",37.735553,-122.505768,https://img.logo.dev/bayareastartup45.com?token=YOUR-LOGODEV-TOKEN
Bay Area Startup 46,"3117 Page Mill Rd, Oakland, CA 94102",37.769453,-122.313227,https://img.logo.dev/bayareastartup46.com?token=YOUR-LOGODEV-TOKEN
Bay Area Startup 47,"6639 King St, Foster City, CA 94080",37.542189,-122.301982,https://img.logo.dev/bayareastartup47.com?token=YOUR-LOGODEV-TOKEN
Bay Area Startup 48,"2380 Brannan St, Milpitas, CA 94111",37.390411,-121.93191,https://img.logo.dev/bayareastartup48.com?token=YOUR-LOGODEV-TOKEN
Bay Area Startup 49,"5461 King St, Brisbane, CA 95134",37.674874,-122.374643,https://img.logo.dev/bayareastartup49.com?token=YOUR-LOGODEV-TOKEN
Bay Area Startup 50,"5466 Folsom St, Brisbane, CA 94720",37.707026,-122.407118,https://img.logo.dev/bayareastartup50.com?token=YOUR-LOGODEV-TOKEN
Bay Area Startup 51,"4425 Mission St, Brisbane, CA 95134",37.69266,-122.447542,https://img.logo.dev/bayareastartup51.com?token=YOUR-LOGODEV-TOKEN
Bay Area Startup 52,"9621 Harrison St, Berkeley, CA 95051",37.834891,-122.290114,https://img.logo.dev/bayareastartup52.com?token=YOUR-LOGODEV-TOKEN
Bay Area Startup 53,"7765 Middlefield Rd, Menlo Park, CA 94063",37.459862,-122.173639,https://img.logo.dev/bayareastartup53.com?token=YOUR-LOGODEV-TOKEN
Bay Area Startup 54,"2079 Sand Hill Rd, Foster City, CA 94089",37.568759,-122.320753,https://img.logo.dev/bayareastartup54.com?token=YOUR-LOGODEV-TOKEN
Bay Area Startup 55,"7096 Sand Hill Rd, Sunnyvale, CA 94612",37.402246,-122.066654,https://img.logo.dev/bayareastartup55.com?token=YOUR-LOGODEV-TOKEN
Bay Area Startup 56,"2020 Market St, Foster City, CA 94103",37.592972,-122.266826,https://img.logo.dev/bayareastartup56.com?token=YOUR-LOGODEV-TOKEN
Bay Area Startup 57,"2153 Middlefield Rd, Fremont, CA 95054",37.535213,-121.973949,https://img.logo.dev/bayareastartup57.com?token=YOUR-LOGODEV-TOKEN
Bay Area Startup 58,"743 Bryant St, South San Francisco, CA 95014",37.662737,-122.454978,https://img.logo.dev/bayareastartup58.com?token=YOUR-LOGODEV-TOKEN
Bay Area Startup 59,"3000 Market St, Cupertino, CA 94010",37.320333,-122.064656,https://img.logo.dev/bayareastartup59.com?token=YOUR-LOGODEV-TOKEN
Bay Area Startup 60,"769 Bryant St, Daly City, CA 95113",37.750567,-122.413539,https://img.logo.dev/bayareastartup60.com?token=YOUR-LOGODEV-TOKEN
Bay Area Startup 61,"4635 California St, Berkeley, CA 94158",37.822737,-122.306287,https://img.logo.dev/bayareastartup61.com?token=YOUR-LOGODEV-TOKEN
Bay Area Startup 62,"9127 Main St, Milpitas, CA 94103",37.423453,-121.885201,https://img.logo.dev/bayareastartup62.com?token=YOUR-LOGODEV-TOKEN
Bay Area Startup 63,"4216 Townsend St, Cupertino, CA 94111",37.362953,-122.049207,https://img.logo.dev/bayareastartup63.com?token=YOUR-LOGODEV-TOKEN
Bay Area Startup 64,"243 Bryant St, Hayward, CA 94133",37.715466,-122.110899,https://img.logo.dev/bayareastartup64.com?token=YOUR-LOGODEV-TOKEN
Bay Area Startup 65,"9270 California St, Berkeley, CA 94607",37.868836,-122.261309,https://img.logo.dev/bayareastartup65.com?token=YOUR-LOGODEV-TOKEN
Bay Area Startup 66,"216 Townsend St, Mountain View, CA 94025",37.392125,-122.086776,https://img.logo.dev/bayareastartup66.com?token=YOUR-LOGODEV-TOKEN
Bay Area Startup 67,"366 Main St, San Jose, CA 94403",37.346554,-121.846778,https://img.logo.dev/bayareastartup67.com?token=YOUR-LOGODEV-TOKEN
Bay Area Startup 68,"3379 Harrison St, Fremont, CA 94720",37.540287,-122.028887,https://img.logo.dev/bayareastartup68.com?token=YOUR-LOGODEV-TOKEN
Bay Area Startup 69,"1496 Market St, San Mateo, CA 94111",37.59496,-122.286268,https://img.logo.dev/bayareastartup69.com?token=YOUR-LOGODEV-TOKEN
Bay Area Startup 70,"6627 Berry St, San Francisco, CA 94080",37.733736,-122.421279,https://img.logo.dev/bayareastartup70.com?token=YOUR-LOGODEV-TOKEN
Bay Area Startup 71,"6688 Mission St, Oakland, CA 94607",37.810798,-122.284274,https://img.logo.dev/bayareastartup71.com?token=YOUR-LOGODEV-TOKEN
Bay Area Startup 72,"7343 Market St, Brisbane, CA 94025",37.693322,-122.411675,https://img.logo.dev/bayareastartup72.com?token=YOUR-LOGODEV-TOKEN
